{"type":"FeatureCollection","features":[{"type":"Feature","geometry":{"type":"Polygon","coordinates":[[[-68.19187308653106,-13.700846653457182],[-68.19575246603327,-13.69095185214599],[-68.20264625572361,-13.679246735590757],[-68.20771621345533,-13.668910539767843],[-68.21061909123635,-13.664090244728774],[-68.21821739718524,-13.652728429298316],[-68.23120673268313,-13.640363336783269],[-68.23629909028244,-13.628644844918327],[-68.23561232777278,-13.621728812307616],[-68.24174361160644,-13.615891814737585],[-68.25399281940255,-13.610777224621676],[-68.26442710685983,-13.607031581382769],[-68.27594936751359,-13.602255868998027],[-68.28099708109663,-13.597792287096626],[-68.28497457357953,-13.59401547883629],[-68.29579243881606,-13.585783939686284],[-68.2976162048786,-13.580263601041125],[-68.30050564686111,-13.575443283647795],[-68.30631136999125,-13.564420392589149],[-68.31464546155442,-13.549268390156357],[-68.32152587297101,-13.538249988805282],[-68.3280405684911,-13.528613820434543],[-68.33525986487373,-13.521742369669619],[-68.34034771644171,-13.508293696962674],[-68.34503873705957,-13.503830160878211],[-68.35475065445951,-13.503192527978342],[-68.36408348179822,-13.505662851896863],[-68.37160600315421,-13.509502095222718],[-68.37845076270344,-13.506429817652085],[-68.38494763464058,-13.499558316651914],[-68.38462212693419,-13.492642227978076],[-68.38682489888225,-13.482983840093828],[-68.38719953295372,-13.479875894103044],[-68.38797090795927,-13.469174029419593],[-68.38944242471344,-13.46123237278242],[-68.39774523566577,-13.45298745635843],[-68.42360807362759,-13.455199238419913],[-68.43006036047603,-13.45799947628369],[-68.43621843338276,-13.447667784893916],[-68.43770332104243,-13.436965929338792],[-68.43773452533394,-13.431441105164815],[-68.44175660338935,-13.416605686007852],[-68.45041619934385,-13.409399751246394],[-68.46231748367244,-13.400138201184971],[-68.47023689902909,-13.396379218955637],[-68.48175024975396,-13.393333635142373],[-68.50332787662038,-13.38999826237855],[-68.51233076011196,-13.386243653828304],[-68.53140234551591,-13.38081695020878],[-68.55332780982845,-13.378863834724097],[-68.56447550808787,-13.377200639478799],[-68.58315912190403,-13.377646492355503],[-68.59537259847936,-13.378400123235407],[-68.60866525317525,-13.379858254857856],[-68.61657121631792,-13.380246156754344],[-68.62735780107779,-13.378230686109417],[-68.64389214584476,-13.378324311386526],[-68.65501307341917,-13.381146879375503],[-68.6783609512333,-13.38507089822458],[-68.72537328082483,-13.398452674103451],[-68.74006604808174,-13.407170184834293],[-68.75510651880676,-13.419343531284117],[-68.76835010373038,-13.429086737901859],[-68.7740488180443,-13.440867633318863],[-68.7783027649457,-13.452287387155309],[-68.78289119465764,-13.470275385371124],[-68.78821536450597,-13.485507739557962],[-68.79815021469653,-13.512159722907123],[-68.8023908423826,-13.5273831226192],[-68.80950757110315,-13.541933181715063],[-68.81991063662782,-13.547515977700742],[-68.83534809431977,-13.550365326378163],[-68.84507781313259,-13.544541752784758],[-68.85555222559833,-13.53320224084955],[-68.86206251669499,-13.524252832290566],[-68.87398619185204,-13.509466492864725],[-68.87552012786581,-13.489783966515342],[-68.88455871260341,-13.476700961972748],[-68.89215257219774,-13.468108267261897],[-68.89721807157643,-13.459841125506754],[-68.90299261885731,-13.454347530315323],[-68.912343364028,-13.452670875921639],[-68.93211953587375,-13.450361062018146],[-68.94002549311583,-13.449714484651265],[-68.9414657811145,-13.449718992055557],[-68.94542097353094,-13.449050088628256],[-68.94352142337428,-13.472183919972705],[-68.95531574148364,-13.48537836188373],[-68.96746236799592,-13.500298562174457],[-68.97637165139096,-13.515891994738794],[-68.9852898059673,-13.530451024584258],[-68.98990054168777,-13.54325751527508],[-69.00419638523371,-13.560951208893783],[-69.0102696826262,-13.56789408111504],[-69.01920576875077,-13.578997240464709],[-69.02417760868467,-13.591464854816122],[-69.03737659513571,-13.61191874009317],[-69.0502321183973,-13.63029471075032],[-69.05773234778678,-13.639319914517136],[-69.06230741622329,-13.65972475830322],[-69.05541806771701,-13.672816688293432],[-69.06294956197351,-13.677347146819583],[-69.07375840094703,-13.669806821514385],[-69.0802463796422,-13.666730072250575],[-69.08852248845255,-13.664357810883251],[-69.10177488528922,-13.672723093737783],[-69.10747364000405,-13.684842896597642],[-69.11352463250437,-13.696967226510214],[-69.11791235770367,-13.707825130326826],[-69.16108539551803,-13.662043508477353],[-69.2176223956176,-13.649294984049055],[-69.27263870011654,-13.656295737340916],[-69.32608997695765,-13.668558243165824],[-69.37954126408434,-13.680820822617742],[-69.39469323685334,-13.692610612186943],[-69.42497054116198,-13.723311558176158],[-69.43540040343446,-13.732323418358403],[-69.4562734544296,-13.78997509005092],[-69.46337237414352,-13.824394890894977],[-69.47295942436273,-13.898295652585977],[-69.46984249275982,-13.946502982622858],[-69.47293714761024,-14.01476734950475],[-69.4676976418159,-14.048692161499632],[-69.45745068572825,-14.081711779963635],[-69.44198644935558,-14.110236664987521],[-69.41451393338143,-14.144268520454627],[-69.37730275039648,-14.154466476556513],[-69.39189742865445,-14.185657913787711],[-69.3820963122739,-14.201282619196528],[-69.37320926947649,-14.212220806254392],[-69.36850942267947,-14.233348038178331],[-69.37400748852735,-14.265471359574047],[-69.38378185153795,-14.289238396049653],[-69.38837469650186,-14.326039334330769],[-69.38893211460561,-14.35497000792756],[-69.38535144855143,-14.394566768744195],[-69.38066047376314,-14.435380931722554],[-69.32692833256993,-14.49412962329558],[-69.28705945129397,-14.51615752667055],[-69.24719062994686,-14.538185489001222],[-69.20517704191154,-14.554541547144437],[-69.18619461556052,-14.576511467375783],[-69.1608357389567,-14.591899892633721],[-69.1339250530133,-14.621289779945744],[-69.12151979272427,-14.653310569128069],[-69.10589515183995,-14.679962613780166],[-69.10750483684379,-14.681848814197812],[-69.11177670590983,-14.69085619476541],[-69.11640964375917,-14.69917244238042],[-69.11781431116734,-14.706779710982829],[-69.11779202786273,-14.711617805600133],[-69.11631159712458,-14.720589524972864],[-69.11413556047553,-14.725414227492216],[-69.10729082469123,-14.728491080941126],[-69.09866246272644,-14.729476498366814],[-69.09076541263309,-14.72805406996387],[-69.08157522412381,-14.7270685994964],[-69.07666122259967,-14.7417211937858],[-69.0721887921853,-14.752993779529715],[-69.0776511731601,-14.765983192275955],[-69.07942142223806,-14.771516902653262],[-69.08369327803027,-14.779833150495957],[-69.0908144367711,-14.79438320046379],[-69.08788035303607,-14.80714962509311],[-69.0868012738888,-14.808522995665287],[-69.07815506175982,-14.812620941938665],[-69.07058798430236,-14.816727696148346],[-69.06552687413479,-14.82257362010477],[-69.05795973717797,-14.82702377070772],[-69.04896573503217,-14.829391537486556],[-69.04572850801682,-14.830064880432339],[-69.03601205944764,-14.834501720437885],[-69.02987636498261,-14.83861744924358],[-69.02230033398882,-14.845141101335507],[-69.01652578454878,-14.850634762103212],[-69.00645270361471,-14.853345856497711],[-68.99278113130762,-14.856378084950734],[-68.98198560495587,-14.859084762498144],[-68.97119902015437,-14.860752416358565],[-68.96472891309446,-14.861064554054343],[-68.94784673359719,-14.859588654856843],[-68.93741689000812,-14.861608557584388],[-68.93201247345179,-14.865033138091047],[-68.92655009926025,-14.880203007219796],[-68.92077552656171,-14.885701100736654],[-68.91175919951604,-14.89290255915632],[-68.90923988584389,-14.893236959781543],[-68.89951453892267,-14.898017185746903],[-68.88909363681542,-14.898311488058708],[-68.88046968634285,-14.897914565862665],[-68.87181904947786,-14.90443381923604],[-68.86711917052727,-14.909936356895361],[-68.86243265369312,-14.911983052861409],[-68.8548968200443,-14.91090838836252],[-68.8498668832886,-14.909494901155925],[-68.8415997342892,-14.910489281927548],[-68.835142965662,-14.907345571080507],[-68.8337116128819,-14.907336703967006],[-68.82181475111022,-14.915563688377304],[-68.81782376843003,-14.9224485946503],[-68.81060900032861,-14.929320047089568],[-68.80841960453927,-14.936561656979995],[-68.8076793139838,-14.941743114956202],[-68.80368849109216,-14.949666886045929],[-68.79896628385127,-14.960003141716781],[-68.78852747508134,-14.964092113270645],[-68.7759484172316,-14.965064218568793],[-68.76911260137867,-14.966406351178344],[-68.75977967801391,-14.963592702342886],[-68.7482974894025,-14.960417826917608],[-68.73931245790415,-14.961407718206006],[-68.73319457968196,-14.962411012274291],[-68.7313930181682,-14.963436582816602],[-68.72453945173828,-14.968582387005112],[-68.71695892929165,-14.97683178246705],[-68.71550977663817,-14.978896284484309],[-68.71401149949234,-14.991323798414005],[-68.71470705677568,-14.997200937653238],[-68.71828327049485,-15.001022340495759],[-68.71935344113498,-15.001718009916729],[-68.73121026022892,-15.003167178208075],[-68.74416394157612,-14.999434976620458],[-68.75601175010972,-15.001570840315411],[-68.76892083988014,-15.007167033348168],[-68.77716129635262,-15.012049706110735],[-68.78503603729887,-15.019692670357557],[-68.7911093222364,-15.026983297420772],[-68.80432162335073,-15.045707069923568],[-68.81218755098448,-15.054041056964712],[-68.81900106031381,-15.057532573351654],[-68.82510555818757,-15.057911616672387],[-68.8380503330088,-15.056600605607539],[-68.85063836230975,-15.05390283700456],[-68.86000688624239,-15.047735951280515],[-68.8679129301653,-15.048815057837123],[-68.87543543985272,-15.053693301557056],[-68.87539077624841,-15.063712898854323],[-68.87464168287333,-15.06923329165145],[-68.87676870715616,-15.07581043625897],[-68.88033151147057,-15.082048680785205],[-68.88642265910735,-15.086918040471646],[-68.89286154452907,-15.092826355245252],[-68.89642887070836,-15.098025658659454],[-68.89783344065383,-15.104598409372198],[-68.89637984127646,-15.109427566849877],[-68.89204550771325,-15.113204427789936],[-68.88378733610239,-15.111086416758676],[-68.87840070092852,-15.11036400830051],[-68.87442764315357,-15.114836435545232],[-68.87512324942654,-15.121404754406003],[-68.87832492754158,-15.126947357110334],[-68.89408337055947,-15.139816380362685],[-68.89980434881403,-15.14606353958137],[-68.91520169261737,-15.157202408511814],[-68.92308088225442,-15.163119622871191],[-68.92880196256728,-15.169371252985567],[-68.9341661825988,-15.174579496994882],[-68.93772015689672,-15.182891281555289],[-68.94127849097647,-15.190511858835137],[-68.94194733226654,-15.200874858799441],[-68.94155046645031,-15.20847310226682],[-68.93900881325008,-15.213989068032848],[-68.93215965016971,-15.220169323187399],[-68.9263895506614,-15.22290275264976],[-68.91345365819161,-15.223865925247402],[-68.9008789919264,-15.222764537874886],[-68.89693271855302,-15.221707737940884],[-68.8904625536872,-15.221324244996815],[-68.88255213252883,-15.22300984030234],[-68.87353582592782,-15.229524563714365],[-68.8710075530891,-15.232619154555788],[-68.86880474962334,-15.242629842464988],[-68.87344222330363,-15.249907073447824],[-68.8777184674593,-15.258218901608156],[-68.88343057437875,-15.265852890126192],[-68.89663845105031,-15.285615626135924],[-68.90378636545336,-15.293254009103544],[-68.9102252893342,-15.299853524328656],[-68.91593740026833,-15.306796344373666],[-68.91987035719019,-15.313034640486709],[-68.92307196792636,-15.318577294242983],[-68.92414659898887,-15.322996263453998],[-68.91875560931297,-15.319937309485619],[-68.91158091196485,-15.317132523230798],[-68.89797170537406,-15.312793834991538],[-68.88682390178754,-15.308361428036639],[-68.87033868918233,-15.30032615370178],[-68.8563682757524,-15.290578561209403],[-68.84775775422968,-15.287078201586223],[-68.8459607267529,-15.28706928208391],[-68.83986064748356,-15.28599907102193],[-68.82188606895676,-15.286592156898367],[-68.81649947359492,-15.285874234534626],[-68.80143659486501,-15.278534519197345],[-68.78961999826217,-15.270178170376486],[-68.78247210505349,-15.261505259029352],[-68.77711672193993,-15.254223562261105],[-68.76817171454684,-15.245537224229873],[-68.75886562390902,-15.237885391144086],[-68.74666550328631,-15.23332813805317],[-68.73660129653972,-15.233965838413727],[-68.72977439559075,-15.234964647548619],[-68.71467585403907,-15.235227731868314],[-68.69851161466563,-15.234104064843493],[-68.6941997005522,-15.234081792299591],[-68.67802654171396,-15.235027122044313],[-68.66544295173908,-15.23496018884454],[-68.65254273928835,-15.228325023438824],[-68.6403426963375,-15.223767893831125],[-68.63495606418392,-15.223049917801083],[-68.62129786689813,-15.222974136259095],[-68.59792320219928,-15.227339554793645],[-68.58497849085872,-15.230032872654771],[-68.57165466273804,-15.23514299873069],[-68.56446213501071,-15.236141868368936],[-68.54289350699158,-15.238094931461728],[-68.53533086511969,-15.241510655895594],[-68.51487694019984,-15.235178710109302],[-68.50267240818135,-15.232694972516606],[-68.48797070723062,-15.225707545726872],[-68.48581698251864,-15.225003067414594],[-68.47683636229706,-15.222880458893329],[-68.47504380354938,-15.223214891841165],[-68.46747673531631,-15.227669539832029],[-68.463120151323,-15.237319044913532],[-68.46344120017422,-15.244917357182056],[-68.46698620121128,-15.254954824467845],[-68.47770589510505,-15.267797045355215],[-68.48558954683321,-15.273709783932702],[-68.49417778760497,-15.280670462404599],[-68.50135246471856,-15.28520086263927],[-68.50312273001495,-15.290043433742927],[-68.51028411763748,-15.294573913986113],[-68.51851553457537,-15.302907985840841],[-68.52531574229111,-15.30812957363452],[-68.53321281445832,-15.311282143273633],[-68.54180992002746,-15.315817105379553],[-68.54502938547269,-15.319981918467967],[-68.55648040402914,-15.330063912850193],[-68.56434623500735,-15.339089136819952],[-68.57005389806456,-15.347757634096553],[-68.57466905895802,-15.35952522565866],[-68.58179470849969,-15.372345124835377],[-68.58751126901501,-15.380670248808944],[-68.59178754115945,-15.387599693537432],[-68.59642942937425,-15.394538080370706],[-68.60248493783324,-15.404932195476482],[-68.60460742072162,-15.413235025903898],[-68.60888813592578,-15.420168989434936],[-68.60883464406662,-15.431914194366698],[-68.60379139616352,-15.433613116967932],[-68.59196584796723,-15.426986897402687],[-68.58587029891562,-15.42487779415951],[-68.57901666422386,-15.428989106918431],[-68.5745307797643,-15.433020062020052],[-68.57252418452885,-15.434826066863208],[-68.57251081147031,-15.438277356389078],[-68.57675143403382,-15.453505163026728],[-68.58137550473882,-15.462508133463837],[-68.58314574887127,-15.468737493886751],[-68.581678717879,-15.475292372426836],[-68.58167426020019,-15.476674675908837],[-68.56979526117514,-15.480759244919932],[-68.56153697834682,-15.478984528119176],[-68.55507577404076,-15.477223188638895],[-68.55077272813423,-15.475818565849154],[-68.54180992002746,-15.470931347358599],[-68.52600241291421,-15.470846655759576],[-68.52239948384006,-15.471172121875375],[-68.50404129550947,-15.4783290067846],[-68.49971602203055,-15.480375744476873],[-68.4953906554968,-15.484152576538689],[-68.5068104555694,-15.500107297215958],[-68.51038218764009,-15.506345575170458],[-68.5121435356049,-15.512570421978543],[-68.51286141147327,-15.513613847226933],[-68.51641976773725,-15.522269021706263],[-68.51781549010832,-15.529876210950894],[-68.51744095037236,-15.533675343058263],[-68.51130521007498,-15.539169032924036],[-68.50524078888056,-15.530496037005921],[-68.50129451420156,-15.528056933662302],[-68.49591685015872,-15.525265478333335],[-68.49053918299818,-15.522126324138945],[-68.48082722437441,-15.525185218071712],[-68.4772242769209,-15.527240862480713],[-68.47074080623763,-15.529965378052509],[-68.45924518476389,-15.529559611806231],[-68.4521016845508,-15.519847742955028],[-68.44709863043009,-15.514296097962813],[-68.43850144128595,-15.508717815357173],[-68.42878953559098,-15.510046562176646],[-68.42085235961599,-15.51760478168768],[-68.4179539060013,-15.521390550761316],[-68.41504662752214,-15.529318865343813],[-68.41320948428083,-15.537256076356533],[-68.41062316413303,-15.552787122074006],[-68.40953956425001,-15.554508295456241],[-68.40413521053384,-15.556898352232373],[-68.39263964160745,-15.556835961139411],[-68.3883454510514,-15.55335785930799],[-68.38224095343169,-15.551248678106354],[-68.38044838663706,-15.550205242586566],[-68.36677678966365,-15.553585298888374],[-68.36531873712502,-15.557723278354414],[-68.36637104221549,-15.563604845685449],[-68.36849803221551,-15.569834212974163],[-68.37171308045485,-15.573994550676234],[-68.3774430352053,-15.579207252314626],[-68.38244610152854,-15.58476325959203],[-68.38995970719654,-15.5917150246844],[-68.39173890054323,-15.595523098167805],[-68.39352255160745,-15.597605486650792],[-68.40068826866752,-15.603518306385553],[-68.40893758451614,-15.60701418139148],[-68.41502433871955,-15.611540209647366],[-68.42542292732861,-15.615740676335228],[-68.43870658902317,-15.61857667581703],[-68.44910962294337,-15.62278158526836],[-68.45303371857695,-15.628672032751354],[-68.45551295608368,-15.636288247965437],[-68.45545054757113,-15.649415829619647],[-68.45680160992826,-15.667729327458193],[-68.45489314674771,-15.691558761337195],[-68.45342163394112,-15.699495941194257],[-68.4523246631212,-15.704329668917355],[-68.44940838335575,-15.712253413583898],[-68.44616668701204,-15.713965718211456],[-68.43682041242221,-15.714951204469743],[-68.42746967528828,-15.716975611853021],[-68.42278311526876,-15.720056860697943],[-68.41664741837683,-15.724863787518796],[-68.41484147956275,-15.728306263180103],[-68.41446693669916,-15.731066371025392],[-68.40977591657413,-15.73587778386983],[-68.40721643369635,-15.74381053213123],[-68.4025343280962,-15.746548392623524],[-68.3971567200189,-15.744791543356268],[-68.39572086553866,-15.744091422406267],[-68.38961191069095,-15.744403613780687],[-68.37562372180415,-15.737072777735328],[-68.34980099150411,-15.727262820905182],[-68.34190392998093,-15.724801354517716],[-68.33473821594417,-15.7206142575208],[-68.32219026083474,-15.71502257651261],[-68.31140813015406,-15.713577845323961],[-68.30062163939616,-15.715249960042009],[-68.28767232967499,-15.71759989842396],[-68.26788285579038,-15.723017727387306],[-68.25387682734474,-15.722941893837483],[-68.24524847804479,-15.722549559179368],[-68.23879168661603,-15.720440359432425],[-68.22764392202649,-15.72210805425631],[-68.22331420370408,-15.726232739703807],[-68.21862768883875,-15.728275021691797],[-68.2189576506802,-15.73519110074236],[-68.22395183924199,-15.743159452650112],[-68.23074303864556,-15.751145732206837],[-68.2368163683224,-15.759123037438753],[-68.24073589227176,-15.765709179449917],[-68.2425061560103,-15.77159071412981],[-68.24284503433184,-15.776081042998584],[-68.24137798696417,-15.782983715818666],[-68.23199602242144,-15.790532943965031],[-68.22407665533606,-15.7942919911105],[-68.21328116289646,-15.797341998880428],[-68.20355144257685,-15.801778846614482],[-68.19921719074468,-15.807281400155071],[-68.19883819516389,-15.81177168613259],[-68.20742637151733,-15.81941901874279],[-68.2167503545408,-15.823271690685493],[-68.2203131599214,-15.829853359666464],[-68.2231580926292,-15.836435004078261],[-68.22636419265204,-15.843016598493147],[-68.22380910130609,-15.851292699951415],[-68.2169510426087,-15.857473028184708],[-68.21045861370806,-15.86261882020936],[-68.19998864605364,-15.873962748178105],[-68.19457972743197,-15.87773515298966],[-68.18411870173095,-15.885966665561249],[-68.18266949769779,-15.888035650693586],[-68.1776262159269,-15.89076909951552],[-68.1592725919656,-15.8975781740958],[-68.14812479015127,-15.897863556554753],[-68.1359158202172,-15.896414311107925],[-68.12657842007239,-15.89463962938713],[-68.10684240145596,-15.888655528201905],[-68.10038568145515,-15.885511834634055],[-68.08352584500626,-15.880584493353735],[-68.07312720417373,-15.875692902334997],[-68.06021361543404,-15.870440073689167],[-68.04909710303014,-15.866235174059264],[-68.04190007672801,-15.86654285290208],[-68.04008522117229,-15.87205870917629],[-68.04181538344683,-15.884851859125753],[-68.04681401912441,-15.891785801214867],[-68.05430534554901,-15.904953535841184],[-68.06394141523363,-15.919173539962063],[-68.07358642599824,-15.93097238300956],[-68.07929859349264,-15.939636387000094],[-68.08428827545623,-15.947957066945241],[-68.09070048434249,-15.96008137569387],[-68.09606034433357,-15.965637408265527],[-68.10249931798943,-15.972928084852663],[-68.11033835906466,-15.98713477244633],[-68.11026703709724,-16.003370307859917],[-68.10806870179594,-16.01061191956072],[-68.10374335653167,-16.01369756597125],[-68.09727317763567,-16.0140097215397],[-68.08613435663754,-16.01498630259719],[-68.08433739996246,-16.015320710938134],[-68.07604792144703,-16.019075296289856],[-68.07495099197789,-16.024256735521675],[-68.08246011650309,-16.03292523121249],[-68.09142288875512,-16.037125747497115],[-68.1000289815183,-16.039934983230577],[-68.10612454287143,-16.044113101936883],[-68.11543069605881,-16.051764914498392],[-68.1193457691294,-16.058694426164106],[-68.11934576912938,-16.05972889700598],[-68.12182057454991,-16.068036228323784],[-68.12426863553861,-16.08324623816177],[-68.12638219295863,-16.091896818910314],[-68.12525850406139,-16.102255387454715],[-68.12233784217304,-16.112604939468408],[-68.12232892690218,-16.113639470827593],[-68.11834689570257,-16.12018097951167],[-68.11581414308544,-16.123623337965736],[-68.10178582680464,-16.126998904339228],[-68.09568135674502,-16.126276525555426],[-68.08993350405724,-16.12451517641195],[-68.07955276699985,-16.116863375338024],[-68.07524974102334,-16.114419764393862],[-68.0684361946637,-16.111619445219073],[-68.05981680120965,-16.111574865369633],[-68.04902578222037,-16.112899234697487],[-68.0321257040232,-16.114531245836922],[-68.02458093739963,-16.114491123480253],[-68.01453461865177,-16.110634015980825],[-68.00736878120271,-16.106103586571514],[-67.99661350711207,-16.10086413828336],[-67.99160139716146,-16.096694874764793],[-67.9854835727259,-16.099080444283118],[-67.98257621886786,-16.105969826684397],[-67.99043317660795,-16.11637734660666],[-68.00541576320103,-16.13926141268761],[-68.01110106950432,-16.154489300395586],[-68.01215340315119,-16.158988482411587],[-68.01643415239592,-16.16592240910504],[-68.01784772792303,-16.171112832126518],[-68.02105822695052,-16.177346600190727],[-68.02066141738935,-16.18390595127576],[-68.01811081187459,-16.1918387008905],[-68.00946907976096,-16.196284416827975],[-68.00550937049088,-16.196605503119425],[-68.00155858138443,-16.196587596794842],[-67.99202058122783,-16.190746225389237],[-67.97051882854326,-16.216403855820214],[-67.92887969738885,-16.26537819878233],[-67.91730385604043,-16.292806116852375],[-67.90394441344777,-16.317821677643746],[-67.89784880946935,-16.320390107993646],[-67.88884142619217,-16.32517916389518],[-67.88307133427772,-16.329981681903934],[-67.87908944089023,-16.335836481096454],[-67.8743894803979,-16.34168229363964],[-67.8732925393496,-16.347202669717298],[-67.87470167070121,-16.352740884153185],[-67.8758075269725,-16.354466602124027],[-67.85952728998956,-16.374144542927386],[-67.82789445902516,-16.40974160363006],[-67.79504424054184,-16.445418876424334],[-67.77224044409702,-16.467709873283408],[-67.7467254483808,-16.48550617165537],[-67.72460826045811,-16.499610335309942],[-67.71206481059048,-16.51198431405138],[-67.70613870982065,-16.533276541609236],[-67.6940010610719,-16.566817844735702],[-67.64807674231696,-16.567727545853057],[-67.5928418660607,-16.576030367469144],[-67.54079524574644,-16.600457306229167],[-67.53083810576497,-16.619506655160144],[-67.5095458812005,-16.654189532557634],[-67.4821491271662,-16.652370223082837],[-67.47253529031116,-16.660713153361336],[-67.46899475722019,-16.66007548801286],[-67.46468287234121,-16.660053192194162],[-67.45855600952366,-16.664164511701543],[-67.4567278327947,-16.670719414158295],[-67.45414594593406,-16.674589881929098],[-67.45133225842419,-16.67276168825392],[-67.45028444795712,-16.665502284485385],[-67.44905812345877,-16.661390949577576],[-67.44742611801449,-16.662376394611147],[-67.44096486775399,-16.661306226195563],[-67.43878887563913,-16.663714187034234],[-67.43300534650406,-16.671276816641278],[-67.42364570672949,-16.676065886237723],[-67.42220543297023,-16.67640471746052],[-67.416083061575,-16.67844259137657],[-67.4063800895241,-16.679428015998983],[-67.39300721794783,-16.676462730511698],[-67.39451447493758,-16.6807434162584],[-67.39877290725514,-16.691476541886384],[-67.3998252187083,-16.697701384364446],[-67.40080178133225,-16.70996844517181],[-67.37365030621109,-16.72158436419805],[-67.33419613670955,-16.750671069820324],[-67.29980316578349,-16.779450079296637],[-67.30025353086684,-16.780761073798597],[-67.30383863663381,-16.782509046995102],[-67.30958639753341,-16.784265946340668],[-67.3135237937556,-16.78740072870276],[-67.32680740845478,-16.789541034231075],[-67.33579251678779,-16.789246718375438],[-67.3419193610746,-16.78582663473255],[-67.35272369273576,-16.780703147245223],[-67.35955954406373,-16.778321977928222],[-67.36388486167782,-16.775927460448184],[-67.37037732551218,-16.770781621352704],[-67.37326683782923,-16.767686972921037],[-67.38013382434423,-16.759089881256486],[-67.38806215593712,-16.753948522301222],[-67.39455457754893,-16.748802671817536],[-67.3981798230542,-16.743295728003275],[-67.40448051718828,-16.73792251858201],[-67.4046543876268,-16.74125788341077],[-67.40745477834439,-16.756472391333045],[-67.41100422307346,-16.76685312834014],[-67.41489251073045,-16.7793118550152],[-67.41523143384208,-16.78518897801651],[-67.41697042832449,-16.79797766579998],[-67.41796037321042,-16.815600024967434],[-67.42323102992641,-16.841195304751594],[-67.42174619716994,-16.851553778256342],[-67.42167481102702,-16.867098231696158],[-67.42376165257231,-16.883342740109406],[-67.419396185815,-16.893340013717808],[-67.41178900902463,-16.907466411738717],[-67.40634889828287,-16.916763678917956],[-67.407365569495,-16.91897090260501],[-67.39266839230696,-16.92290387500729],[-67.38438338206177,-16.926315082520325],[-67.37357446730323,-16.93282089498276],[-67.36637306817612,-16.93692772788199],[-67.36204774083193,-16.938974440315697],[-67.35125668412769,-16.94099441577735],[-67.33978338639385,-16.936432797386832],[-67.33403564408377,-16.93433256336894],[-67.32901019109211,-16.934653543885826],[-67.32217444173712,-16.93599574720567],[-67.31460730318128,-16.940789305756677],[-67.3045253256397,-16.944882730777593],[-67.29695822324005,-16.9486417969482],[-67.28864203030129,-16.959999155136195],[-67.2818061808379,-16.962375840616595],[-67.27675851992981,-16.96545707655381],[-67.26449599246376,-16.97471861096672],[-67.25294245375333,-16.985371373489958],[-67.24282026056744,-16.999823348335806],[-67.23953395916715,-17.011550776043272],[-67.23483401439059,-17.017396654321512],[-67.21753718998872,-17.02663144827808],[-67.20819090509826,-17.02796473639971],[-67.19920138450688,-17.027911189034658],[-67.18877599623738,-17.029583369819985],[-67.18261799046566,-17.03991515801058],[-67.1815031677094,-17.04785674649098],[-67.18506602295872,-17.055129581148844],[-67.18827658639812,-17.05894657420625],[-67.19123740962924,-17.067927187862992],[-67.18573044586026,-17.066874884219974],[-67.177490016775,-17.061653281695573],[-67.17067649128113,-17.05850510367373],[-67.1617047845867,-17.055348111266117],[-67.15668384160173,-17.053939005246058],[-67.14411364896952,-17.052489789824005],[-67.12687022572916,-17.051700510964988],[-67.12219266396532,-17.05202606547801],[-67.11249415606387,-17.05162474061688],[-67.10674184778482,-17.051593503042977],[-67.09488516556507,-17.051183296016656],[-67.08986868742937,-17.048739690592118],[-67.08448651902103,-17.04663943359065],[-67.07843103991068,-17.0355496335652],[-67.07702644607659,-17.027251306017057],[-67.07853803676453,-17.01205908398484],[-67.0814810463248,-16.996875883234132],[-67.08371953659913,-16.980305836120845],[-67.08628802585109,-16.96856949610312],[-67.08846852954714,-16.962019125878967],[-67.08994441347166,-16.954773018168357],[-67.08891443077118,-16.944057805675083],[-67.09075158258293,-16.93577731206164],[-67.0979619566869,-16.930979269263943],[-67.10483338970901,-16.920999775853414],[-67.10737057712356,-16.91617953598675],[-67.10175211999758,-16.888163000387717],[-67.08853980100166,-16.869782585538804],[-67.07707989896174,-16.86246517952158],[-67.07313366680361,-16.859334885077015],[-67.06310062811966,-16.85340879165378],[-67.05630497667073,-16.847495954793875],[-67.04842572156734,-16.841926563982163],[-67.0322971904244,-16.832513434037658],[-67.0229776597564,-16.826243890279763],[-67.01729676430948,-16.81239394764522],[-67.01450987105156,-16.79372365840002],[-67.02392747917129,-16.777884969545372],[-67.02716918129428,-16.77548151923289],[-67.0411842203069,-16.77659631744992],[-67.06417085088889,-16.778098999231464],[-67.07816350238085,-16.783704090520615],[-67.09429208111438,-16.79208273895073],[-67.10610866433811,-16.801130242163453],[-67.12437316545379,-16.814008156848693],[-67.13260466314293,-16.82096877731357],[-67.1390614376579,-16.82410798163817],[-67.14873323036583,-16.830725294547623],[-67.15251897169041,-16.8283709426063],[-67.15127490559654,-16.825209436566528],[-67.15021366873357,-16.821062448927076],[-67.14525070039682,-16.807560249449903],[-67.14311924152159,-16.802365473941784],[-67.1392130799548,-16.79198023096055],[-67.13350541960193,-16.78192933303929],[-67.12922465255957,-16.77569112135128],[-67.11814377272287,-16.76354000108293],[-67.11421981036966,-16.757297316317054],[-67.11065695883114,-16.75071566261644],[-67.10958676978869,-16.74932890758396],[-67.10674184778482,-16.742403895140118],[-67.09923722136209,-16.73338312146077],[-67.09278046302987,-16.73058286270398],[-67.08488332837447,-16.729503690050667],[-67.07912665605707,-16.73119816960136],[-67.07048049263938,-16.734952735284317],[-67.06508499109579,-16.735617143820033],[-67.06184323398242,-16.736977142815807],[-67.05465516038558,-16.73866719160085],[-67.05037887041817,-16.731389933940903],[-67.04860861886668,-16.724469406656],[-67.04972782029998,-16.71549326239759],[-67.04975009162361,-16.711694078599045],[-67.05012470446488,-16.70720372853842],[-67.05307216153788,-16.69305505191586],[-67.05381684513462,-16.687186852710038],[-67.05313906667804,-16.67751064632301],[-67.04847035504976,-16.67748828123423],[-67.04127339560456,-16.678830499311562],[-67.03013010207879,-16.68118491136395],[-67.02543461183586,-16.684270617311462],[-67.01535705506343,-16.688016279454565],[-67.00887357438437,-16.69177975890326],[-66.9980557675076,-16.700011208671786],[-66.99121101776834,-16.703083527760448],[-66.98579321509142,-16.709620588215564],[-66.98433060366229,-16.71479317995113],[-66.9824667800666,-16.72894635427706],[-66.9835057214367,-16.736896945532525],[-66.98958341891543,-16.743839693657666],[-66.99278062753301,-16.752494848197433],[-66.99560771435083,-16.762527816128586],[-66.99053329051686,-16.771829473895934],[-66.98403191893743,-16.779739997412637],[-66.97899756185177,-16.780747737553977],[-66.97360201972792,-16.78140762552268],[-66.9635378312514,-16.78170197424824],[-66.9502408165088,-16.780591675349037],[-66.94665567000773,-16.779534821304022],[-66.93805852930144,-16.774652081074784],[-66.93090172523807,-16.768396048195658],[-66.92480611905087,-16.76490902105273],[-66.91334624426008,-16.75620925949105],[-66.90366991940508,-16.749939774067446],[-66.8900518353938,-16.742613459855612],[-66.87389207986841,-16.739068476219106],[-66.85379043781857,-16.735157889357776],[-66.84409188914677,-16.733726525772013],[-66.82972024640557,-16.73295505023178],[-66.81356935731579,-16.72941451799156],[-66.80674698484515,-16.727648759614475],[-66.80029462558892,-16.724852898458753],[-66.79386013591548,-16.725660006226853],[-66.79415002156688,-16.73138099168494],[-66.793770989286,-16.736562500886095],[-66.79517561795963,-16.744169734132594],[-66.79475196631955,-16.757640646465173],[-66.79290142402485,-16.76902921039551],[-66.79258036942257,-16.776306408837787],[-66.79141210629452,-16.77938766959725],[-66.78598537850169,-16.787993753446365],[-66.77947950311797,-16.79624750230507],[-66.77477965124284,-16.802789062454266],[-66.76936186611464,-16.806904826322533],[-66.7589186112079,-16.81202828996601],[-66.74630833090276,-16.82059874030177],[-66.73802775768621,-16.822627567309755],[-66.72687550690944,-16.826020980433213],[-66.72183227501587,-16.828063211338613],[-66.7121203679536,-16.82973982112026],[-66.70455774355419,-16.833151028282117],[-66.69303987906552,-16.837926779078586],[-66.6858384525644,-16.840651276039047],[-66.68043400398875,-16.843384725320433],[-66.67214006659087,-16.849212753800458],[-66.66815808693799,-16.856445454173443],[-66.66671783135628,-16.85713215201162],[-66.66381043632039,-16.86436923334746],[-66.65830350203291,-16.87190511935896],[-66.66165224897406,-16.86435584786642],[-66.65880738477661,-16.857774259244948],[-66.6555922997294,-16.852922732462513],[-66.64986684005136,-16.849092390518962],[-66.64737862755261,-16.842515156773842],[-66.65063382958907,-16.838042744054096],[-66.65139627732195,-16.829066491145692],[-66.64277690866184,-16.82763515222446],[-66.63049206943533,-16.842421512731462],[-66.6196608765695,-16.853765503563235],[-66.61567004336561,-16.8606548237524],[-66.61060449750472,-16.868226352779317],[-66.60336292104907,-16.879583716186637],[-66.59867194334876,-16.884051730763034],[-66.58641829582521,-16.89193093547494],[-66.57702745271716,-16.902244825813774],[-66.56839019649854,-16.90530826842163],[-66.56047969826714,-16.906298147695566],[-66.55406307576746,-16.895208365193707],[-66.5426656416826,-16.873037734264408],[-66.53192362596192,-16.86572483601556],[-66.51826535685369,-16.865653448363343],[-66.50746990870945,-16.86870348604042],[-66.49416398262255,-16.871392281316083],[-66.47469998263067,-16.88372622686069],[-66.43974957751875,-16.903230320565143],[-66.4224616153342,-16.911426138745355],[-66.40444236644336,-16.92238215085904],[-66.39003057375217,-16.93059583981443],[-66.37416060783255,-16.943290848143302],[-66.36261156687117,-16.953939239792046],[-66.34530579795745,-16.96628195357003],[-66.33196412589004,-16.97691694198793],[-66.31895248431687,-16.99101216993423],[-66.30129896093322,-17.001972623604896],[-66.2937228990158,-17.007109496693182],[-66.2872393337272,-17.011220770185457],[-66.27173506233814,-17.0221946419102],[-66.2537158323422,-17.033150626564098],[-66.23064445372019,-17.049261386734475],[-66.21587148502375,-17.057470612623554],[-66.20037167141362,-17.067405471757738],[-66.18169247718531,-17.065925058783],[-66.16371339686808,-17.069282787142914],[-66.1550984056447,-17.067508073728227],[-66.13029236484935,-17.0680609320135],[-66.10983399621767,-17.064493657165286],[-66.10264594629986,-17.063075665567116],[-66.09726829704779,-17.060627666439366],[-66.09083376544997,-17.05265028336698],[-66.08585296764747,-17.04225610869632],[-66.07045127063965,-17.033195274043596],[-66.06467672368741,-17.037649916554],[-66.05960670522953,-17.04522593987806],[-66.05450551939076,-17.060395760909635],[-66.05374742968716,-17.068337435513772],[-66.04828065153352,-17.08627196362933],[-66.04498088419382,-17.100420639843684],[-66.0409631831285,-17.114908257820655],[-66.0358976785131,-17.12178866188587],[-66.0290128306792,-17.133498275085845],[-66.01817273547856,-17.14587673988132],[-66.00302075537421,-17.159267409480826],[-65.99580144027932,-17.165099905684826],[-65.98643287470492,-17.170575685962348],[-65.97598076602988,-17.17846833020875],[-65.96903345122226,-17.204683348043673],[-65.9757934751911,-17.218194413368828],[-65.97686812998842,-17.219233402633463],[-65.96786517057775,-17.222987956988863],[-65.95958910880628,-17.226051399029473],[-65.94770115331514,-17.231513820246818],[-65.93688779290098,-17.238362980461744],[-65.92323405872233,-17.239326164597898],[-65.91349532715698,-17.24583641324344],[-65.9008850137905,-17.25267669644958],[-65.88105090282322,-17.268809727347755],[-65.8716645289451,-17.27705008575256],[-65.86011542926397,-17.288389622835833],[-65.84605587664625,-17.29867230845731],[-65.83271875363864,-17.306203708141478],[-65.82625748309387,-17.305476873985324],[-65.81765146212004,-17.3016287127738],[-65.81083791832275,-17.29779386886065],[-65.80474233810277,-17.296032511160867],[-65.79504382809533,-17.294253330809287],[-65.78605873486401,-17.29454759960831],[-65.76877525020718,-17.30240009439984],[-65.75004703297138,-17.311625964660166],[-65.73598304096807,-17.321221992420256],[-65.73310246021707,-17.32396880431606],[-65.71939960807582,-17.332878037048182],[-65.71181468279654,-17.3414752226283],[-65.7071058345932,-17.34904672267599],[-65.70421638132646,-17.35248921327301],[-65.69552556001436,-17.366602209659348],[-65.68287066365002,-17.38415326352451],[-65.66950223625739,-17.3996308201996],[-65.6594023866635,-17.407866795355865],[-65.64421916192757,-17.427130091479135],[-65.6037528262123,-17.473549288562854],[-65.59290382309923,-17.487653441959353],[-65.58496664536187,-17.495211600312825],[-65.5777339477681,-17.504495517549802],[-65.56365214180674,-17.519968571717932],[-65.55030157694175,-17.53129470889265],[-65.53443160305915,-17.542611879162738],[-65.52146010136231,-17.550486690587054],[-65.50703938173083,-17.560425975653512],[-65.48254553199378,-17.5730764285047],[-65.47136657845022,-17.582342461992752],[-65.46053986856435,-17.59092176634164],[-65.44214611484297,-17.606368091980592],[-65.40936280123523,-17.622768714463188],[-65.39027332309799,-17.633376913565186],[-65.37588388260696,-17.63640911396469],[-65.37048385022378,-17.638103490628545],[-65.3579180849567,-17.63596318337433],[-65.34098692810649,-17.645197989153264],[-65.31439286804759,-17.644711889388393],[-65.29602129750057,-17.65532009091712],[-65.28301861620297,-17.668724148207563],[-65.27327105369008,-17.67903361115986],[-65.26352782880727,-17.687617394026045],[-65.25054741491465,-17.69687451613379],[-65.23647447443102,-17.709926264412143],[-65.22563892032223,-17.721270247610846],[-65.21372861266482,-17.732257416156003],[-65.20111833988537,-17.738754384875797],[-65.17733789223225,-17.752443820910575],[-65.1683439444235,-17.75584610740872],[-65.15141270191693,-17.764394150819975],[-65.1283636335069,-17.774975620669284],[-65.11433530892279,-17.778007872773145],[-65.10858299814562,-17.778324420531728],[-65.09599054394043,-17.779983194659117],[-65.09288700270206,-17.781954151379683],[-65.09812196993387,-17.786212593861418],[-65.10349074832097,-17.791081917354305],[-65.11104444665881,-17.79513524478427],[-65.09701610035002,-17.79242858803986],[-65.08588616560648,-17.79098376910353],[-65.06756374244463,-17.78950340433926],[-65.05463240381314,-17.788054223224695],[-65.04603073509122,-17.78454936081808],[-65.04029188422449,-17.78037564790915],[-65.02955440947484,-17.770641359626534],[-65.02419901638152,-17.764394171610267],[-65.01955257285879,-17.758494814077665],[-65.01133007312752,-17.749817385629658],[-65.0070359186229,-17.746334809895682],[-65.0045165681337,-17.74632147686275],[-64.99769405984385,-17.745251270194327],[-64.99302544593257,-17.74419004540331],[-64.98801340467061,-17.741050792641783],[-64.98336257587712,-17.735847017180678],[-64.97818550077652,-17.7243023789018],[-64.9755100600912,-17.725435033791644],[-64.96797866559227,-17.720904545138414],[-64.96153078104565,-17.717417596929767],[-64.95350438450001,-17.71480007330929],[-64.94249042223537,-17.715932658992052],[-64.93782177192507,-17.71625369642835],[-64.93241735906001,-17.717948207506648],[-64.9241412751613,-17.721016059881077],[-64.91981594560114,-17.723753922820702],[-64.90937266062049,-17.72819074443252],[-64.90504291196807,-17.731276418314803],[-64.89952249364336,-17.73817915738437],[-64.89131329925105,-17.74778401189219],[-64.88138740394592,-17.760412194679347],[-64.87361957970826,-17.765651634571096],[-64.8631674691458,-17.773539765892487],[-64.85991681619231,-17.77628659607989],[-64.85197516651084,-17.783496952318913],[-64.83469162869238,-17.790314946728873],[-64.8224737154793,-17.791282547290386],[-64.81168268512863,-17.793298061444997],[-64.80161850455534,-17.793244587879997],[-64.79515729478383,-17.79216996735532],[-64.78005876905931,-17.792776383816523],[-64.75563180545691,-17.79264706407996],[-64.74413182262072,-17.79224130532516],[-64.73046017726062,-17.79527348462044],[-64.72110048643329,-17.79868017958508],[-64.71066175354781,-17.801730256475718],[-64.69987521734866,-17.80374572189673],[-64.68981103090023,-17.804383438806966],[-64.67180512457128,-17.81257477334061],[-64.66510754854788,-17.81799255613399],[-64.65196220639235,-17.829742332029024],[-64.63899952408592,-17.834852439828982],[-64.63108909799571,-17.8368813223998],[-64.6192145360625,-17.83923574151219],[-64.60878915048963,-17.839868924931327],[-64.59890779362887,-17.840680469728447],[-64.58757724745765,-17.84182649663464],[-64.57498027191339,-17.84555877739728],[-64.56348468118262,-17.84584409385446],[-64.5466024934439,-17.844024849753197],[-64.52791441809855,-17.844613437489816],[-64.50523986024949,-17.851400156830636],[-64.49555472154852,-17.854048910073647],[-64.48257429250839,-17.857152442836938],[-64.47358469915578,-17.85813783031851],[-64.45885629625906,-17.858405450844604],[-64.45022352696007,-17.859738702840353],[-64.44213023589239,-17.859533609137202],[-64.42616216427011,-17.85546237336144],[-64.41072032156715,-17.85399985754961],[-64.38591883640794,-17.855587308422468],[-64.36687398749073,-17.85479353835493],[-64.34746353776933,-17.855382161750963],[-64.33273958505596,-17.85322840750732],[-64.31586635292014,-17.85106570057284],[-64.31227676387968,-17.850008962903367],[-64.2871095812536,-17.85263537257357],[-64.27345135521341,-17.8532506864346],[-64.25473652962667,-17.858677449340668],[-64.23783203474184,-17.861696268123445],[-64.23548659569103,-17.861638291854973],[-64.22562302535066,-17.85921250237153],[-64.21378858460511,-17.854655332475446],[-64.19836457358647,-17.849736942336254],[-64.18218247148644,-17.850686736148905],[-64.1707003331552,-17.848202985938272],[-64.16134061016847,-17.85195305937288],[-64.15303776796267,-17.858472294618707],[-64.14547960643866,-17.862231282738048],[-64.1386259906285,-17.867029321179675],[-64.12923959249738,-17.87630425104803],[-64.1241606622143,-17.887679411479073],[-64.11980416038664,-17.896294394702224],[-64.11328935019117,-17.90593049547022],[-64.10787159377247,-17.912467592611723],[-64.10135680602897,-17.92175589983197],[-64.09557337767042,-17.929670800462326],[-64.08978989542261,-17.937242309894444],[-64.08542448438327,-17.947582968782044],[-64.08109469752377,-17.952737708747733],[-64.07745155609466,-17.96204832864283],[-64.07274726362347,-17.96996767982991],[-64.06697267385888,-17.975809091218366],[-64.05725182847603,-17.97955472756163],[-64.04718768970045,-17.97881003149664],[-64.04182335086476,-17.97429295473734],[-64.03180825277475,-17.963528763154166],[-64.01893038264,-17.951707647899035],[-64.01141233208229,-17.94406917487846],[-63.99316564585061,-17.927392164100336],[-63.98852376126466,-17.92183615536391],[-63.97991763019856,-17.916953413939872],[-63.9766848581015,-17.91693557408692],[-63.96229973645059,-17.919967796417623],[-63.95438037192602,-17.922687792397888],[-63.94213567911796,-17.92849357574372],[-63.93348953202039,-17.93225263561417],[-63.91796737182052,-17.94771232850938],[-63.90930338074742,-17.95560933038888],[-63.90029595769054,-17.961089595289312],[-63.89020054469688,-17.967943199148277],[-63.87940506197692,-17.971341040972533],[-63.871133415904595,-17.972330986302286],[-63.865381210705934,-17.974025416455103],[-63.85961561408599,-17.976754402898738],[-63.82504862398898,-17.991081548494627],[-63.81498887425568,-17.99102357871965],[-63.80709180573984,-17.98994444094272],[-63.790945382861736,-17.985021627058114],[-63.778005139525796,-17.98495469563881],[-63.759267976500404,-17.9952150928957],[-63.74881584471761,-18.002064314243786],[-63.74341143213897,-18.005836644643022],[-63.73513973053353,-18.00613988499358],[-63.7272293684302,-18.008168814175768],[-63.72112477777824,-18.006407401374677],[-63.71645612947855,-18.00569395996276],[-63.7074933764291,-18.001841367242566],[-63.69601565463608,-17.99763196748996],[-63.68452901792859,-17.994461509089845],[-63.670906435409876,-17.98747857097145],[-63.66104733890336,-17.981293789382892],[-63.66226021215194,-17.965187514510536],[-63.66233606197486,-17.947917449624875],[-63.65917002786491,-17.933046292749662],[-63.644838539683164,-17.923989889164762],[-63.62073261886694,-17.929046495046222],[-63.60669532917449,-17.933460982226258],[-63.593005948012085,-17.93994896984273],[-63.5814791454941,-17.94645480941393],[-63.568155375228635,-17.95225167533388],[-63.556980864743906,-17.95910976579231],[-63.53253609731031,-17.960358327981062],[-63.509188222097094,-17.95678211843361],[-63.476168562974664,-17.946240777659675],[-63.462586097158,-17.930281671588112],[-63.448263543467306,-17.91811275918056],[-63.43574683422027,-17.905266154112592],[-63.431140527423345,-17.890386100050282],[-63.42366267581664,-17.874801537572175],[-63.41977877828402,-17.860964970122428],[-63.41445910039261,-17.844354778507373],[-63.412367708577946,-17.830527133827253],[-63.4109899254949,-17.816699457229532],[-63.40891197330869,-17.799763753558935],[-63.403957881284796,-17.78315360938056],[-63.396818887236684,-17.772059395602017],[-63.39116475563454,-17.75165452401892],[-63.382224230204024,-17.7419292607209],[-63.37832700379759,-17.729470483023164],[-63.383446001755416,-17.710501479087398],[-63.386380115844936,-17.697391754289384],[-63.389358806803365,-17.67495357368575],[-63.396252549948656,-17.660827095278037],[-63.40678049924603,-17.637733408411943],[-63.41294299464373,-17.626367218137606],[-63.421638242574836,-17.610871801501467],[-63.429963316995675,-17.59847999413325],[-63.43831083339043,-17.58055884815709],[-63.44306866222803,-17.56158531749327],[-63.443064162286554,-17.541760163409766],[-63.443719714689145,-17.539561884840108],[-63.44732267634174,-17.537162896934724],[-63.452722589615,-17.535807315991256],[-63.46171663632278,-17.533096174664713],[-63.47214201177063,-17.532115195343987],[-63.48400322971808,-17.53149092744869],[-63.50306140966367,-17.529519969361843],[-63.511694249938365,-17.52714775180821],[-63.51781660821407,-17.524070949687],[-63.523234371329714,-17.518572859769034],[-63.530462542722915,-17.510323498945084],[-63.54020573506973,-17.50139196873314],[-63.54742497683303,-17.49382934237029],[-63.55463984872771,-17.487305687335045],[-63.561867998807095,-17.479056332134917],[-63.568364915313,-17.47252375997736],[-63.57450514386,-17.466686758773662],[-63.582076643628845,-17.460510877298944],[-63.589291496605014,-17.455365096115866],[-63.59648846800723,-17.45298843554748],[-63.60585262102627,-17.447855957602656],[-63.61879293812742,-17.447579510388532],[-63.66154234250836,-17.450232677141184],[-63.67087967982439,-17.451664022318898],[-63.68058269330323,-17.452060949693717],[-63.69531552329112,-17.451450053075924],[-63.710075199938046,-17.44669220157237],[-63.71799897023038,-17.4422464329579],[-63.72484370403292,-17.439517467291786],[-63.7284287872478,-17.4409220537763],[-63.74103912624066,-17.433390641592677],[-63.74646141908783,-17.42719700718693],[-63.75116128141538,-17.421351078741164],[-63.76235366831527,-17.410011573171058],[-63.77460282354066,-17.401789044436946],[-63.7926265034778,-17.390485161584483],[-63.80127717297392,-17.385348336871285],[-63.804880138052916,-17.383297096668674],[-63.809557680305346,-17.381250389768084],[-63.813878540835454,-17.380238132821905],[-63.821762304131774,-17.38442531164926],[-63.82351917323691,-17.39272809400278],[-63.827046289958155,-17.407942548645273],[-63.82881212068275,-17.414519736153604],[-63.83234814670539,-17.426282836549454],[-63.83553643653205,-17.435972517507082],[-63.838390228506285,-17.44117179953991],[-63.844824699501096,-17.447771259573074],[-63.85380092641336,-17.449545993385904],[-63.85776058269653,-17.44853379922373],[-63.871855775464155,-17.430643808645137],[-63.874892467216796,-17.42904753307416],[-63.87654232738763,-17.427214775327077],[-63.88377500784079,-17.418269833540514],[-63.89246580547831,-17.404156819250737],[-63.8946462384966,-17.398640866875912],[-63.89757590378817,-17.386908985898213],[-63.901553381614825,-17.38105860320876],[-63.90696231442388,-17.376942893899514],[-63.922448812856224,-17.369424895501556],[-63.92749648037195,-17.36600029472485],[-63.93253973899559,-17.364640243623835],[-63.94332630249926,-17.362281410652514],[-63.94871736531053,-17.3623125997746],[-63.95266813591936,-17.36336936811147],[-63.956596600442225,-17.367881989915052],[-63.95874141708149,-17.37135121488703],[-63.962295317043754,-17.378967308249003],[-63.96515360687562,-17.38312769947418],[-63.96909985072364,-17.38384113965058],[-63.96981337936138,-17.38557571096276],[-63.97088796029821,-17.386271350178223],[-63.98094769529652,-17.387359322467578],[-63.98741338715555,-17.386703899085106],[-63.99390143114682,-17.382940387994623],[-63.99896250371864,-17.376751191198885],[-64.00186089121564,-17.371239698951065],[-64.00441598416214,-17.36295913022455],[-64.00879032576458,-17.350549477334166],[-64.01204551098319,-17.344694667484845],[-64.01423490200483,-17.3377964907533],[-64.01822582959993,-17.329524855375595],[-64.02401819640046,-17.319884284835478],[-64.02871809398928,-17.31438170869904],[-64.03484485915207,-17.31130496378098],[-64.03700304632105,-17.309592626902564],[-64.04238966062113,-17.310658399863126],[-64.05641797000423,-17.307621692886993],[-64.06542986327463,-17.30214596986854],[-64.07443277227347,-17.29839135947707],[-64.08054174887474,-17.297735860801527],[-64.093504314494,-17.292625713398614],[-64.1118446344046,-17.289268059983673],[-64.13156723101565,-17.298703513206117],[-64.14305834306607,-17.300491634730825],[-64.1523956756083,-17.301579611303975],[-64.15957485032455,-17.303002105004495],[-64.16065390936029,-17.30300657457189],[-64.16567044003392,-17.30579792004855],[-64.17392872113452,-17.30825938252722],[-64.1796809007459,-17.30690826112987],[-64.18722576208133,-17.306952836766783],[-64.19550185530694,-17.30526728998429],[-64.20559724265705,-17.29875700644055],[-64.21134946428084,-17.296714763452954],[-64.22215829748144,-17.29021335407897],[-64.24015970743635,-17.284091075722152],[-64.24662539832742,-17.28412669507872],[-64.25705080215523,-17.284871341812405],[-64.26458670201502,-17.285950467205673],[-64.2796629135055,-17.289486519067943],[-64.28970921221497,-17.292652518787918],[-64.29473913581715,-17.29405715801986],[-64.30120926895948,-17.292367102907132],[-64.3073361085807,-17.289290322917104],[-64.32788806959003,-17.27350954968709],[-64.34052068229896,-17.261835691289143],[-64.35420125872356,-17.256382227227043],[-64.36752498190528,-17.25161989955226],[-64.38803239017187,-17.245858692674346],[-64.40673834772404,-17.242157638295996],[-64.41430547363248,-17.237364125723527],[-64.42583673519401,-17.23051497458926],[-64.43808141705954,-17.22574374743538],[-64.44742761402684,-17.224067114840018],[-64.46647693437599,-17.222791781918342],[-64.47940829876482,-17.223897626008632],[-64.48660087268304,-17.22324218578077],[-64.48948147642274,-17.222225510153923],[-64.49020377803103,-17.22084313888937],[-64.49847987569322,-17.218470908140016],[-64.50678277775629,-17.21160834059305],[-64.51435876280843,-17.205084690521275],[-64.5197810039182,-17.19786095191726],[-64.52339290462808,-17.193388431816384],[-64.53061665868599,-17.18651698680821],[-64.53891947743585,-17.178963302241034],[-64.54901043098928,-17.17176182615321],[-64.55910588728952,-17.164908167680583],[-64.57349981993885,-17.16015034231187],[-64.58357296862937,-17.15778700062789],[-64.58645795675231,-17.15642251614943],[-64.59148340785741,-17.157135940763826],[-64.61016255877313,-17.15931199457197],[-64.63135662096303,-17.160462466654142],[-64.6547000189571,-17.16231747794598],[-64.66117023361035,-17.162700918434204],[-64.6658388666667,-17.163414393758146],[-64.67121656819594,-17.16586240040268],[-64.6830732728522,-17.166963795117237],[-64.69274957210455,-17.17150763256907],[-64.70101229022694,-17.173625758175064],[-64.7110452821943,-17.178860677240856],[-64.71784985241055,-17.183734533622626],[-64.72357086093078,-17.190672909242867],[-64.72713365755493,-17.19656335599236],[-64.73106214168811,-17.202114961060673],[-64.73680103041777,-17.204562967312256],[-64.74505479748736,-17.205646533509583],[-64.75080705923276,-17.205677743088533],[-64.75727721438398,-17.205365602596817],[-64.76590110065293,-17.206105848883492],[-64.77165338471741,-17.20613701322151],[-64.77556841007659,-17.213753188794026],[-64.77621505471475,-17.22861532971559],[-64.7776196051085,-17.236913748389647],[-64.78010779494745,-17.24176524293704],[-64.78475868598849,-17.246969066515714],[-64.79011403020928,-17.254255203094136],[-64.79476932065707,-17.258081106374537],[-64.80014256505076,-17.261563634550722],[-64.80804411409919,-17.2622949305002],[-64.813782965294,-17.26440414950675],[-64.8191918138942,-17.260283902045806],[-64.82351714980749,-17.25823717556718],[-64.82605880515227,-17.252721239025036],[-64.82825272373566,-17.24409736891321],[-64.8355166191166,-17.227554136259023],[-64.83877616186088,-17.221699286340165],[-64.84889833567051,-17.208973004344635],[-64.8517923182628,-17.204843855988084],[-64.85576533290438,-17.200028059332556],[-64.86661440234013,-17.18591945122564],[-64.87455605180755,-17.177674595440248],[-64.88104402325918,-17.174254493334832],[-64.88967235397043,-17.17291671830459],[-64.89506339033984,-17.172604561396675],[-64.90549327625908,-17.171275767595677],[-64.91592313461989,-17.169608112269714],[-64.9256216754896,-17.16966158874421],[-64.93784846887225,-17.167654966308877],[-64.94471553871364,-17.15905337444809],[-64.94834080850252,-17.153546387571133],[-64.95412423626061,-17.145974857647907],[-64.96817931833849,-17.13741779560123],[-64.97682107763897,-17.132972125768365],[-64.98474929155944,-17.127830794842644],[-64.99159850810486,-17.123032803629492],[-65.00527907856565,-17.118961600293492],[-65.02002970615419,-17.11558605052394],[-65.02614759076299,-17.11285711865384],[-65.03444151411124,-17.10702906849351],[-65.0423876570372,-17.098436356417167],[-65.05613954695256,-17.077781838324825],[-65.06912888434061,-17.066451206604487],[-65.07777513700567,-17.061662145548567],[-65.0871258150962,-17.059642221572723],[-65.09648100343995,-17.05692663325918],[-65.10512722104454,-17.053176483907322],[-65.11483023123903,-17.052534348072932],[-65.1302854552805,-17.051236757791376],[-65.13603767329417,-17.050576804717167],[-65.14538395106781,-17.05063035225923],[-65.15258095646803,-17.048940315962067],[-65.16336755027001,-17.047620446403965],[-65.17667353090366,-17.04492713118048],[-65.18494960978194,-17.042554891183425],[-65.19069738066604,-17.043277323044485],[-65.20508686907874,-17.040245109952718],[-65.21120476532327,-17.037516106614387],[-65.2198464760277,-17.034452679752256],[-65.22812709253881,-17.03035478153468],[-65.23499852645038,-17.02071425785322],[-65.24005074099979,-17.01728968371426],[-65.24511181268292,-17.011095978683358],[-65.24727448577991,-17.008688015604076],[-65.2541637675533,-16.99525274819845],[-65.25885917410731,-16.99044582541379],[-65.26464708294587,-16.98218316705976],[-65.2707694352122,-16.97980198870794],[-65.27511711350466,-16.972912649732656],[-65.28771403338959,-16.968489261758783],[-65.29456322542292,-16.963000065125218],[-65.31186451437361,-16.951691809823668],[-65.31980168977485,-16.9448292457681],[-65.32736884610215,-16.940379102194715],[-65.33997471453797,-16.934225517741655],[-65.34715830128057,-16.93426560990462],[-65.35903291464086,-16.93191128104013],[-65.367661268742,-16.930577964589883],[-65.37305229006581,-16.929918024179162],[-65.38239861985926,-16.93065819807486],[-65.39678368747467,-16.928317195807388],[-65.40614329133851,-16.9245670883487],[-65.41153884942197,-16.924250529039444],[-65.41800453988374,-16.92359505751746],[-65.4298701450072,-16.922970746101264],[-65.43813289578279,-16.922324201227678],[-65.45543862167129,-16.91136370044726],[-65.46622521981668,-16.909348225013154],[-65.47483125833716,-16.91353970816413],[-65.4841775374305,-16.912554281861155],[-65.48993429491185,-16.911203203778367],[-65.50324466263797,-16.908514305269144],[-65.51079398257602,-16.907863276735384],[-65.52195058479097,-16.90446542538332],[-65.53060126789006,-16.89829408825369],[-65.53571138108198,-16.88070741371854],[-65.53862765508703,-16.872774659366275],[-65.53973348974341,-16.866219783437383],[-65.54735412390653,-16.85071097744047],[-65.55277194626564,-16.84417841871784],[-65.55565697914682,-16.843505138185883],[-65.55925103855816,-16.84317516112628],[-65.56536888252914,-16.84044617183366],[-65.57257923750971,-16.835304773398434],[-65.6021207835391,-16.81956860362304],[-65.60645054791291,-16.81475726779467],[-65.61296976072319,-16.804777828729723],[-65.62417553576378,-16.790673673758228],[-65.63102915102644,-16.785527831483705],[-65.64004540760241,-16.77763077955948],[-65.64761252758989,-16.773180627929772],[-65.65410501035993,-16.767691471679974],[-65.66241675556316,-16.75875538628084],[-65.67177637297674,-16.755691996757072],[-65.67827775749906,-16.74916831533575],[-65.68012383691187,-16.737427503008163],[-65.68377584816707,-16.725013367030115],[-65.686683206709,-16.71742850475853],[-65.68887264845063,-16.710186906847383],[-65.69213216656193,-16.706053345476306],[-65.6975455580371,-16.69986852980007],[-65.70799320596765,-16.694740537859275],[-65.72780497050748,-16.68345010702535],[-65.74399602243024,-16.67939236309337],[-65.75769884745232,-16.67083091087634],[-65.76525257082251,-16.669145310409714],[-65.78505537362415,-16.659232712528087],[-65.80342690124276,-16.649659066453577],[-65.81747303543868,-16.643171044481814],[-65.834047522157,-16.634279596134242],[-65.84881609776717,-16.627448259204954],[-65.86035175167909,-16.619569029604474],[-65.8668576070363,-16.61027631128336],[-65.86869922921295,-16.601647940669913],[-65.8626170058787,-16.595739633343552],[-65.85365421416294,-16.590856861388552],[-65.84324668636445,-16.587347550900354],[-65.83282579519305,-16.58867195016669],[-65.81807063357617,-16.593082015499423],[-65.80368106271118,-16.596457534866904],[-65.76805282603867,-16.60697653287976],[-65.75293652538123,-16.612077729179255],[-65.73493064090896,-16.619577980132732],[-65.71800389980221,-16.629160576522658],[-65.68019964622216,-16.644156491540787],[-65.67012655940816,-16.64617201210671],[-65.65609823987651,-16.648517571628272],[-65.64638625574047,-16.650537491672967],[-65.63854269956018,-16.651803861816592],[-65.65617404480955,-16.633316492113938],[-65.66771859052703,-16.62335929336642],[-65.67889311639692,-16.616166741441795],[-65.68612578232728,-16.605839472216303],[-65.69046894222916,-16.59861129405519],[-65.69124482862281,-16.587213831150397],[-65.69056706149048,-16.578572076298123],[-65.68772659977705,-16.56992143498687],[-65.68165779926748,-16.56194406057583],[-65.67702473506624,-16.552932230101472],[-65.68213043056227,-16.538110178366033],[-65.69511530436273,-16.527466341655845],[-65.7062898354601,-16.519582603011052],[-65.71350909744531,-16.513750106613717],[-65.71602851340171,-16.512381206565138],[-65.73804313701419,-16.491084507045763],[-65.75029671902986,-16.483548633892944],[-65.75716373207266,-16.47598598783567],[-65.75759182432314,-16.46182389971617],[-65.75623181662367,-16.444197073061357],[-65.75771217999655,-16.4341908663022],[-65.765694003902,-16.419029921450893],[-65.77111177687104,-16.412497319108603],[-65.78804750490724,-16.403262498137167],[-65.7974249419444,-16.395022127794185],[-65.80931737153517,-16.387829602260577],[-65.81733488407212,-16.364726937459604],[-65.81881971872592,-16.355407475789374],[-65.81812859737309,-16.348491405769064],[-65.81707173441248,-16.344344426138836],[-65.81744183118663,-16.3412364439242],[-65.81890888697525,-16.335372703874707],[-65.82434900070247,-16.324688671683763],[-65.83191612423144,-16.319203994589255],[-65.84343845859885,-16.3151239202636],[-65.85962046801885,-16.312791776603582],[-65.88802945901838,-16.307070827536613],[-65.89415620857456,-16.30399846732944],[-65.90030091405687,-16.296774703578652],[-65.9003231421318,-16.292632193890398],[-65.89855288350243,-16.2857116706006],[-65.89464676219626,-16.2767087985362],[-65.88891683505096,-16.272526148448666],[-65.8853361323605,-16.269056979499222],[-65.88318688970129,-16.26766127263996],[-65.88755233975444,-16.25593829205041],[-65.89260897671335,-16.25078353980875],[-65.89839238837817,-16.244255407069218],[-65.90345794665932,-16.23530154407225],[-65.90927261616828,-16.222200689452034],[-65.91038740009255,-16.213915745285032],[-65.9129424221657,-16.205296224965746],[-65.9158542084551,-16.197020184314106],[-65.91373612320565,-16.18906067869807],[-65.9084030738954,-16.17832314765649],[-65.9062894688705,-16.168638033038203],[-65.90525045268465,-16.159652936594906],[-65.90927261616828,-16.14516531978395],[-65.91863227652703,-16.14072405518213],[-65.93375303183421,-16.13424492277922],[-65.94490077041664,-16.133611786182623],[-65.95644539259644,-16.12331120681738],[-65.96367807674203,-16.11470960560843],[-65.96697337742239,-16.100565319801834],[-65.96308945116131,-16.085689821522234],[-65.95523259128619,-16.07528228771052],[-65.94628757620129,-16.066943771773527],[-65.93913963677987,-16.057922988541023],[-65.93200505498454,-16.04648534286999],[-65.92667197462005,-16.034022159343728],[-65.92313144153377,-16.022945750638296],[-65.92461190765067,-16.01396957643779],[-65.93179999818166,-16.014700946348878],[-65.93895680675409,-16.020265848266135],[-65.94717497438641,-16.031021245979208],[-65.95432285627284,-16.04004194707682],[-65.95861258185981,-16.044902377802902],[-65.96539931402742,-16.051845195820633],[-65.97256507926707,-16.057066856734878],[-65.97650244037382,-16.061579447846025],[-65.98366374744643,-16.065766535528113],[-65.99013396265559,-16.066141062030535],[-65.99733095853482,-16.064803397296057],[-66.00849200859982,-16.060023199081872],[-66.01641137595014,-16.05695983431826],[-66.0275814946143,-16.050115109864166],[-66.0290128306792,-16.050810683384025],[-66.03046649603887,-16.04839834751147],[-66.03660664266282,-16.04048784257167],[-66.0373379331991,-16.03911004730558],[-66.0434737205345,-16.032925284356445],[-66.05142425016746,-16.02364137028047],[-66.05900471041627,-16.01539208594135],[-66.06910458118256,-16.00784280569777],[-66.07990896886045,-16.00306714356972],[-66.09647456141036,-15.995210186668908],[-66.1105118437848,-15.990108990947421],[-66.12055368098348,-15.993961651864945],[-66.12701492119152,-15.995379633240733],[-66.13348514042187,-15.995415295075643],[-66.14031199703209,-15.996142165358984],[-66.14749114813671,-15.997216795264528],[-66.15504484835112,-15.996565751749394],[-66.16260746651646,-15.99246333136377],[-66.16802975265085,-15.986274127145451],[-66.1705714351068,-15.980758207337995],[-66.1630712434678,-15.970355105882135],[-66.14227849458737,-15.959185082360138],[-66.13619176297708,-15.954663546717455],[-66.12615877914365,-15.948389601641141],[-66.12007215251457,-15.943520306837481],[-66.11039139597732,-15.938285293089727],[-66.09173005482407,-15.933344589000015],[-66.0831151250897,-15.930539871625125],[-66.07058060312235,-15.922870178144292],[-66.06556851801544,-15.918005322980711],[-66.05913403985869,-15.910023537326236],[-66.05054582293731,-15.90341515929544],[-66.04448146044027,-15.893016473331919],[-66.04269332253439,-15.890934127760831],[-66.03804254330014,-15.887799393871111],[-66.02944090735365,-15.881190989276869],[-66.02479452168296,-15.876330552039525],[-66.01979144232273,-15.870774483945105],[-66.01548836408132,-15.867987548308411],[-66.00796585226936,-15.863800475590608],[-65.9989941507717,-15.861334565249466],[-65.98393134918281,-15.85330822883225],[-65.97712674440406,-15.848434435720268],[-65.97177136804274,-15.841148210071983],[-65.96930104461333,-15.832154220864744],[-65.97077249340782,-15.824908222989453],[-65.98879176364548,-15.814295495674706],[-65.99742905477203,-15.810888798800645],[-66.00282900720107,-15.809189856772685],[-66.00929912156367,-15.807495435849454],[-66.01687065919043,-15.803392995493628],[-66.02729608097854,-15.802068634974345],[-66.03376625469811,-15.802104309059379],[-66.04058864107324,-15.803174495785465],[-66.04669315923222,-15.804592517699257],[-66.05097836578788,-15.810139617131362],[-66.05848748374838,-15.818473668278294],[-66.0638339405224,-15.82713772487871],[-66.0734879156133,-15.83824538903771],[-66.07919558493316,-15.846566014463296],[-66.08777486690425,-15.85663471441979],[-66.09887800954436,-15.865329903720601],[-66.10673495210519,-15.875046352183114],[-66.10922758302277,-15.879550039130033],[-66.12207869061089,-15.898621610403907],[-66.12636391906827,-15.904173137595517],[-66.13388199220891,-15.909738149546428],[-66.13853276996693,-15.913911852420718],[-66.14498961234821,-15.91774671425429],[-66.15287777976437,-15.920208107903557],[-66.15933453316538,-15.924042924512305],[-66.16758830239861,-15.926160983145595],[-66.17548535410754,-15.927931224489377],[-66.18409587844134,-15.931083813653464],[-66.19021822516955,-15.932756036455695],[-66.19630496724614,-15.933572022625158],[-66.20671245653375,-15.935351224094077],[-66.21211242088384,-15.934343406446422],[-66.22110640334179,-15.931284525443246],[-66.22294801546515,-15.922660570850017],[-66.22190904946385,-15.912979854637522],[-66.22195371660698,-15.903999226622439],[-66.22343408957303,-15.894336364431831],[-66.22635036213646,-15.886060339532028],[-66.22852191629272,-15.881922290696838],[-66.23575459381604,-15.87229058130201],[-66.24370516121346,-15.86335006982456],[-66.25199913314424,-15.856835319923183],[-66.25848263434955,-15.85306739425133],[-66.2685646767119,-15.849321762830272],[-66.27756316232622,-15.846262835246854],[-66.29626455485631,-15.84221838895038],[-66.30957947791092,-15.839872909878698],[-66.32179291185481,-15.839248692503581],[-66.33149593281372,-15.838954378839016],[-66.34084225339244,-15.837968934105046],[-66.35131221620088,-15.828698449408813],[-66.35638662961023,-15.819396724885312],[-66.35356854459127,-15.807638066453721],[-66.34032501704718,-15.795821495500938],[-66.33030093444924,-15.787821875029344],[-66.31847985298951,-15.779122125434371],[-66.29881076264402,-15.758284780738125],[-66.29382550206729,-15.748929537944338],[-66.28275347426076,-15.734705031382536],[-66.27312632261426,-15.719107067631683],[-66.26812768105154,-15.711477615057916],[-66.26533629232887,-15.69315509960188],[-66.26646441328849,-15.682453262847593],[-66.27117322047553,-15.67487727995983],[-66.27406269920193,-15.67109596300494],[-66.27769245645061,-15.663858815815926],[-66.28454608840273,-15.658713046720726],[-66.30182505884173,-15.65086057239984],[-66.31337863880276,-15.640903415207443],[-66.32814267954973,-15.633037515527603],[-66.34508731463113,-15.621729248983575],[-66.35628410565992,-15.609355228432552],[-66.36677633556738,-15.594903286110688],[-66.37364779034841,-15.58423269399562],[-66.38995474325486,-15.555645382659893],[-66.39612619833466,-15.541857873783187],[-66.40010812840129,-15.536355261780924],[-66.40551700829013,-15.531891708324311],[-66.41130937448297,-15.523285702622433],[-66.4156792985931,-15.510528143622803],[-66.42113282749402,-15.496049478106492],[-66.42875784632558,-15.479853989455426],[-66.44355761046398,-15.466115526240442],[-66.46013657613545,-15.454459475566072],[-66.47203790288452,-15.446580198923328],[-66.48970037028859,-15.434585221562894],[-66.50160174535058,-15.425319195187123],[-66.51636582067856,-15.417796756596115],[-66.52610900013403,-15.410251887170745],[-66.53908497908246,-15.400651486043039],[-66.55098632549306,-15.392767750190862],[-66.56323991290427,-15.383854058887891],[-66.57871296663672,-15.379444005660828],[-66.5906232494023,-15.369147889079734],[-66.60359921511653,-15.359890839857695],[-66.62232741169761,-15.351008276957183],[-66.6327661707066,-15.348301589124455],[-66.6395708063908,-15.352484235886436],[-66.64818577149916,-15.354950140255918],[-66.65683646589892,-15.349469950436497],[-66.66117961834162,-15.342928430411565],[-66.66587059694255,-15.338464824606845],[-66.67454351236819,-15.327455306890647],[-66.6778120236817,-15.321252707859504],[-66.6904223919848,-15.31337791864845],[-66.6998132469212,-15.302720703971135],[-66.72468613106524,-15.286271057016744],[-66.7365785381582,-15.279426335561807],[-66.74954111538563,-15.273281671850597],[-66.77797685564133,-15.263761513735771],[-66.79597375943435,-15.25798255282858],[-66.80894525132545,-15.25010772269738],[-66.81615568537727,-15.244623036677057],[-66.83164213196234,-15.237105019178067],[-66.8514405378408,-15.23064827636655],[-66.85863303481871,-15.22861492880643],[-66.87266579361791,-15.225234886484461],[-66.88202544497528,-15.222175943365931],[-66.89462246454346,-15.217409195730442],[-66.90035237651527,-15.221239507506406],[-66.90321512197424,-15.225747658838614],[-66.90569887911349,-15.230251416580565],[-66.91249898722242,-15.238233152159724],[-66.91963353507653,-15.24898409430356],[-66.92463670140302,-15.253848942845053],[-66.93001436647072,-15.256635897460605],[-66.93468303197747,-15.258392772261839],[-66.93863823139964,-15.258067267539706],[-66.9464817939087,-15.271926132179196],[-66.94896550811066,-15.277468832981016],[-66.95218055081888,-15.28197700091662],[-66.969780623571,-15.283452963402356],[-66.98164180885392,-15.28282862170524],[-66.9860295455693,-15.266963147075057],[-66.99002935849688,-15.257657054572517],[-66.9947292821025,-15.251463356721393],[-67.00302316011658,-15.244600752782475],[-67.00879776470332,-15.238754874978923],[-67.02503328522879,-15.225368686919015],[-67.0485059891148,-15.20027731685686],[-67.05646551326578,-15.189615563176595],[-67.0712964614552,-15.167930970281706],[-67.07888584481081,-15.15829936536848],[-67.08541849857303,-15.144516297923222],[-67.08547195197602,-15.133805495629295],[-67.08301500788859,-15.120321210244299],[-67.07912665605707,-15.108205775720089],[-67.0791489281463,-15.101989823530387],[-67.07308012325727,-15.092973537899526],[-67.06735907363415,-15.086726337210052],[-67.05268863883224,-15.074209568213192],[-67.05089611109533,-15.073161730426936],[-67.03408086106788,-15.056832511393022],[-67.02802983160664,-15.04470821224119],[-67.02304901661792,-15.033284014494347],[-67.02058316338831,-15.022907622801629],[-67.01708269523172,-15.003193963501829],[-67.01677063624666,-14.993522167975014],[-67.0175553743734,-14.979360046498753],[-67.02090422293526,-14.954505052103304],[-67.02061434215538,-14.938960570960022],[-67.02103348307115,-14.926524189915796],[-67.02109593154064,-14.913396602899537],[-67.02329426610717,-14.903390361841353],[-67.02551042304458,-14.890967315831599],[-67.02842670550852,-14.881652223950011],[-67.03169969524424,-14.874071766264155],[-67.04212951530445,-14.871017275447475],[-67.05111009792834,-14.871757459265911],[-67.05902055815804,-14.870763094777004],[-67.06876374259829,-14.861835972274859],[-67.06632902694572,-14.845587045181533],[-67.06457665047829,-14.83521517544448],[-67.06285991226821,-14.819309589086687],[-67.06508053675073,-14.805504201757461],[-67.06658319773707,-14.790659823529984],[-67.06803686339327,-14.786173959512201],[-67.07203670656227,-14.777211207321294],[-67.08033062238728,-14.771730960758418],[-67.08715755399854,-14.771423249871656],[-67.09396208488192,-14.77560590652541],[-67.1011278491946,-14.780827498679894],[-67.11186096850336,-14.79055728772033],[-67.11544600697339,-14.791957427886139],[-67.11868332685287,-14.792323045311033],[-67.12369542302149,-14.79545781182858],[-67.12837744729156,-14.79341108394297],[-67.13022795408928,-14.782713715232113],[-67.13063823891704,-14.77062060970418],[-67.12998267421729,-14.75783639316254],[-67.13256902564306,-14.74230537531333],[-67.1369478121461,-14.727474337823876],[-67.13988637933228,-14.714016800044577],[-67.14246375869132,-14.701250436855155],[-67.14575899657264,-14.688483970341085],[-67.1519526686675,-14.669862804609396],[-67.1534063835045,-14.666759275073257],[-67.16108047224516,-14.639514156131417],[-67.16615044250256,-14.62986468132095],[-67.17626373671011,-14.619903002259525],[-67.1852666771709,-14.616152887447235],[-67.19572321175161,-14.60791693578342],[-67.2133500482448,-14.603868126213914],[-67.22375315544978,-14.60738184900425],[-67.23235921500189,-14.61087781603408],[-67.2488534488081,-14.618226423966822],[-67.25529237534593,-14.624478067322753],[-67.26033565576094,-14.623122490822322],[-67.26470111834762,-14.611747326955706],[-67.26018399419203,-14.578210428625942],[-67.25807037257731,-14.568525274481596],[-67.25775823052145,-14.55919682723151],[-67.25860546048143,-14.531220403658878],[-67.25933676289931,-14.52776907982176],[-67.26194092394985,-14.50981675096],[-67.26915125100328,-14.505714351605638],[-67.27564368072538,-14.499872962906194],[-67.28821394730673,-14.500287602540453],[-67.29504974834721,-14.499632146678051],[-67.29973624298538,-14.495859783247901],[-67.30696002005735,-14.488297141395433],[-67.31021062233867,-14.484515745671477],[-67.32102845596522,-14.475936472051643],[-67.33148058652345,-14.47046961010286],[-67.34872395518668,-14.471254402590896],[-67.376428341691,-14.464494403778506],[-67.3843476446805,-14.46142657393468],[-67.39585659461646,-14.459072158895793],[-67.40520291629502,-14.45773888651082],[-67.41814324847813,-14.458153620707726],[-67.43252382654798,-14.455469172115192],[-67.44404616592142,-14.451732496206471],[-67.45303565715187,-14.450742523236341],[-67.46346999261101,-14.447692559121403],[-67.4735208247613,-14.450510659372345],[-67.48283137645566,-14.45608899421052],[-67.48963151778113,-14.463036277295071],[-67.49607938131362,-14.467214465934752],[-67.50611683266044,-14.472106071991611],[-67.51581532040264,-14.472502945293847],[-67.5248093268225,-14.470821895428402],[-67.52985261816062,-14.46808850027164],[-67.53669729758725,-14.464672814218444],[-67.54285536547954,-14.454688840706114],[-67.54648504729445,-14.445721630378552],[-67.54902673984414,-14.44055800506402],[-67.55048489337992,-14.436763271254874],[-67.55410568282393,-14.429873938480245],[-67.57318164959882,-14.424451704523362],[-67.58364723132074,-14.414146728469143],[-67.59017976689918,-14.40070701053416],[-67.59528987388806,-14.383806950421874],[-67.59607468156265,-14.36861041138658],[-67.59866994327781,-14.35238814429477],[-67.60482792183392,-14.342404274258849],[-67.60810978665668,-14.33136349980554],[-67.61246633628058,-14.3220573713179],[-67.6139512951027,-14.31066879739776],[-67.6122211322245,-14.297188982969066],[-67.61264023473096,-14.28406131708771],[-67.61558778021755,-14.270256003960451],[-67.61848612687619,-14.264401207092284],[-67.61742490586796,-14.259901962437322],[-67.62646349904031,-14.248205766532125],[-67.62974541198601,-14.237512769228982],[-67.63089140922038,-14.224050787500985],[-67.63918972852697,-14.215801456852544],[-67.64821499122455,-14.20652648600362],[-67.65689240877755,-14.196899286219503],[-67.66484742528822,-14.184850831308912],[-67.66738914260037,-14.180026076032666],[-67.67607994567523,-14.16659972728171],[-67.69065225180923,-14.122806850142693],[-67.69828181302341,-14.10592024682034],[-67.70448885027984,-14.084534385441025],[-67.70815421661051,-14.069012322822466],[-67.714668997983,-14.05902835288334],[-67.71982371999125,-14.031760984852008],[-67.72384576378846,-14.016586613709551],[-67.72822018712459,-14.004515876287874],[-67.73115430324735,-13.991406124690558],[-67.73443615684624,-13.980369815242035],[-67.73915834032442,-13.969338040043851],[-67.74387162255833,-13.960036302905955],[-67.7532357357496,-13.955942877104114],[-67.75687437215748,-13.947671232031494],[-67.76407580664906,-13.943216614638459],[-67.77415333270106,-13.940166592759908],[-67.78209061340536,-13.93468189968825],[-67.78714720106535,-13.927453703550169],[-67.79149039591809,-13.921603347676523],[-67.78975131576665,-13.909501322942727],[-67.79372439627558,-13.904342136516076],[-67.79915559305586,-13.895736124339845],[-67.80671821581392,-13.893359387058123],[-67.81716136136737,-13.886849110539817],[-67.82582096875718,-13.879643148857651],[-67.82910289685665,-13.870680435804006],[-67.83275040954292,-13.859296310857266],[-67.83638009995668,-13.851029104290687],[-67.8446740250067,-13.844853240649096],[-67.85619191854599,-13.839734250661804],[-67.87130824086306,-13.835671964404865],[-67.87886648636014,-13.832256304208398],[-67.88823059552422,-13.828506234315682],[-67.89470513594739,-13.826125023884916],[-67.90046634229829,-13.823735006487297],[-67.90298572608295,-13.823405031387345],[-67.90654858106258,-13.827556454465027],[-67.908349977562,-13.829652175489908],[-67.9129964278766,-13.835894967297275],[-67.92053224896917,-13.837317437539511],[-67.93167110115209,-13.83668865133177],[-67.94751873873378,-13.830557384530653],[-67.95292765999147,-13.825750496400596],[-67.95440806529952,-13.81677431070844],[-67.95478712705955,-13.811940622179545],[-67.95588847143382,-13.807111470248598],[-67.96489591531143,-13.801974573205966],[-67.96642981636727,-13.800886587246003],[-67.98364191472047,-13.79293149168622],[-67.98972416648114,-13.795892334020333],[-67.9947450971894,-13.797301410004811],[-68.00265557754312,-13.79699820894126],[-68.01163615128071,-13.797738417476967],[-68.01809743934956,-13.799156394099807],[-68.03101987339694,-13.801644579405782],[-68.03857357005931,-13.799959082937765],[-68.04396910423212,-13.798260156573681],[-68.04865116605279,-13.795522275995005],[-68.05226305710134,-13.793123275621406],[-68.05727953827282,-13.794875655808116],[-68.06444530257139,-13.800097289715273],[-68.06622896788566,-13.802179694823922],[-68.06834258558747,-13.811521494612176],[-68.07085301991617,-13.813608344196458],[-68.07587398469093,-13.81570859719608],[-68.0809038714135,-13.815387507825045],[-68.09239937668374,-13.815793322124152],[-68.09995311114558,-13.815837917041636],[-68.11001731924894,-13.815543637059037],[-68.11648751799412,-13.814888148296287],[-68.12368004550048,-13.813550356147092],[-68.12873664597221,-13.806317698911089],[-68.1284111471592,-13.799753896494188],[-68.12593188042136,-13.792142269057656],[-68.1158899227747,-13.78725061350986],[-68.10764950353821,-13.782715704214713],[-68.10191509760676,-13.7802632140517],[-68.0864866886957,-13.775001505518818],[-68.07967312189132,-13.771853352866641],[-68.07324755885796,-13.761111378531268],[-68.07615044588813,-13.755599893803733],[-68.0905310954918,-13.7542934027016],[-68.10273111395388,-13.75850281209897],[-68.11672822999054,-13.76237770796264],[-68.1260522366769,-13.765539249360128],[-68.13791794175994,-13.76560610157771],[-68.13972383647386,-13.762850377666142],[-68.14154765346602,-13.756643341708779],[-68.1401430377636,-13.750418449418952],[-68.14363893051213,-13.749629218612199],[-68.14913258534588,-13.748393999866638],[-68.15813552233422,-13.745678385425656],[-68.16137724947227,-13.743279423188733],[-68.16496240153077,-13.744331810352623],[-68.17536989985896,-13.748880028623958],[-68.18218788533916,-13.7502980188669],[-68.19260433068423,-13.750699365151617],[-68.20373420846038,-13.753183097498017],[-68.21666565799167,-13.753941159299282],[-68.22099100561186,-13.751198812097943],[-68.22064757955617,-13.74843410761189],[-68.21707140086792,-13.744273760573252],[-68.21241609411273,-13.74113456580115],[-68.20808629414032,-13.73716150810679],[-68.19849477023936,-13.720680701894908],[-68.19736669909605,-13.720065343367445],[-68.19671560199714,-13.71686813387376],[-68.19280947570688,-13.70751745190625],[-68.1924661420897,-13.703370440536752],[-68.19187308653106,-13.700846653457182]],[[-69.03129438846338,-13.822660329327503],[-69.03394306031932,-13.80915819433792],[-69.03326970502033,-13.79913414551356],[-69.0365828142445,-13.7822252108312],[-69.04777520826389,-13.77088570536317],[-69.06436746618387,-13.75853844129667],[-69.07591211957822,-13.748581250077708],[-69.08600751719975,-13.741379813545048],[-69.1009812272309,-13.731119488609815],[-69.06766723343206,-13.784106923092903],[-69.03129438846338,-13.822660329327503]],[[-67.37068940994112,-16.5489948551582],[-67.35740580301227,-16.54685006259078],[-67.34267290921377,-16.546078560374415],[-67.33656397403729,-16.54604293571783],[-67.32829229713974,-16.547037330789795],[-67.31679678487674,-16.54628372673817],[-67.30708486467638,-16.549685993051963],[-67.29663715839658,-16.553775018185714],[-67.28550724484643,-16.55198248970676],[-67.28266234166675,-16.546444283693766],[-67.28161441764072,-16.538837001693942],[-67.27989327863273,-16.523974830384745],[-67.2746136762223,-16.499418605533624],[-67.27145220175434,-16.48385184602098],[-67.26577575680446,-16.46724169492391],[-67.25972919147102,-16.45546071560874],[-67.25184546187569,-16.44920014129903],[-67.23822740645458,-16.441182695813133],[-67.22278548538664,-16.438676726607266],[-67.21163330083327,-16.442074563196176],[-67.20910055392699,-16.44655142565624],[-67.20365149303491,-16.458613297466787],[-67.20002628864553,-16.46550265342982],[-67.19206230685153,-16.477551148884274],[-67.18268481441292,-16.485443778095746],[-67.17476543703565,-16.488163755393966],[-67.17082804788289,-16.484342306856124],[-67.16870998524489,-16.47707849566774],[-67.16301577823705,-16.464263017943047],[-67.15947964532587,-16.45215658916513],[-67.15773172151629,-16.44143245973671],[-67.15790564096861,-16.44032655527422],[-67.15630481956677,-16.439702322037594],[-67.15704949937145,-16.43348633859971],[-67.15672393485085,-16.42657473283494],[-67.15783872788741,-16.418289668801336],[-67.1582489342443,-16.40689217867046],[-67.15939936767474,-16.39204340880832],[-67.16376482738563,-16.380668268322],[-67.17027964402756,-16.370336544770247],[-67.17644656943804,-16.358279092133756],[-67.18080310842663,-16.34897740030531],[-67.1848296383504,-16.3334552482955],[-67.18487427866997,-16.322048940181293],[-67.18350979507294,-16.308225700524524],[-67.1817394605644,-16.300961779311997],[-67.17681668990326,-16.27813564127498],[-67.17152373573214,-16.25703518225361],[-67.16727415662943,-16.244228663051967],[-67.16301577823705,-16.232461124422287],[-67.15840057972571,-16.22034130277611],[-67.15271080021387,-16.206839087448206],[-67.14736870906457,-16.19644498235977],[-67.1466597660955,-16.19540597689411],[-67.12448907718873,-16.17109938127495],[-67.11702011934025,-16.15551489711081],[-67.11419753738946,-16.143408360960215],[-67.11210615249149,-16.128885101674594],[-67.11324325434975,-16.117492066346554],[-67.11615056168809,-16.11059832450782],[-67.12230857541795,-16.100271061688638],[-67.13171281694983,-16.08615802047152],[-67.1353603916286,-16.07512174302362],[-67.1371841844905,-16.0689146458342],[-67.13901689046519,-16.060977459416364],[-67.1441181037137,-16.045459805916124],[-67.1575177088114,-16.024457408811884],[-67.16548157868074,-16.010683215585242],[-67.17275891933387,-15.992066527663557],[-67.18754524648767,-15.979710336019066],[-67.19904973241844,-15.97977272565917],[-67.20727680208608,-15.987763452838163],[-67.20827564196425,-16.00538585221941],[-67.20814626368367,-16.031988871071313],[-67.20772712545244,-16.045455288265618],[-67.20802143138873,-16.05893521061821],[-67.20472170058642,-16.074461758371967],[-67.2021265107138,-16.091375157354424],[-67.20136843002464,-16.098282267400613],[-67.20416882199665,-16.115226903193363],[-67.20984518464377,-16.130798089221827],[-67.21696639275397,-16.145695947881823],[-67.22834157757704,-16.171665682601972],[-67.23832105631304,-16.188989345958525],[-67.24508550909825,-16.20319154203702],[-67.24900056249898,-16.210812133333295],[-67.25753082968495,-16.23158710293554],[-67.2664624203721,-16.241655741082734],[-67.27612085830587,-16.25207224653431],[-67.28039709951975,-16.260731784910476],[-67.29364064890918,-16.271513902575773],[-67.29145121570285,-16.279098835402984],[-67.28353632476268,-16.28009767453151],[-67.27742736948218,-16.28006198877645],[-67.26413920445674,-16.27964729069048],[-67.25729451835458,-16.28202847685348],[-67.25080202505212,-16.28751763345658],[-67.24827372288092,-16.290268884311786],[-67.24282917098341,-16.301982937706295],[-67.2405996601247,-16.317170631389963],[-67.24054610682842,-16.329263733941534],[-67.24157171205675,-16.340322259387772],[-67.24868842327842,-16.3562546777677],[-67.25762002608847,-16.36597547377753],[-67.26693959363467,-16.372936129617685],[-67.27873388233155,-16.386817338433946],[-67.28732213861494,-16.393082395205557],[-67.29805071735467,-16.404885640470358],[-67.30486421483195,-16.40768598113792],[-67.30808371309206,-16.410811771872822],[-67.31056742631223,-16.417388958292495],[-67.31088394900071,-16.42809970660412],[-67.31366646122211,-16.435372525252124],[-67.3100679553403,-16.449168973696192],[-67.30927423980555,-16.464713418027767],[-67.31714013355334,-16.472699662730957],[-67.32287005379357,-16.47722116221353],[-67.33147613093175,-16.48176055257371],[-67.34365842402978,-16.489082346309612],[-67.36157061550452,-16.499543461601277],[-67.36659158104065,-16.503369298300964],[-67.37232148925756,-16.50719973040603],[-67.37946945729456,-16.514838125883514],[-67.38949347546135,-16.5231856105448],[-67.39379208256075,-16.52700701139172],[-67.40160438384582,-16.547434148552618],[-67.40229559001725,-16.552963442002774],[-67.3890074267928,-16.551166442531354],[-67.37068940994112,-16.5489948551582]],[[-68.80623457331251,-14.55584805280823],[-68.80363491135803,-14.574491519420297],[-68.80142768006291,-14.585188904659177],[-68.79662523538741,-14.613838595338828],[-68.79334330664514,-14.62453157111806],[-68.7900614648305,-14.633489869936902],[-68.78715413369922,-14.640388162031568],[-68.77525278310418,-14.649992992212434],[-68.76732452496682,-14.65478654459673],[-68.76119324101475,-14.660627954028527],[-68.75181571730522,-14.666794944847034],[-68.74245608484412,-14.67089287027729],[-68.73310088104272,-14.673256159366383],[-68.7251681439707,-14.679431976052195],[-68.71399812688816,-14.686281189972712],[-68.70932053217653,-14.687293435054803],[-68.70033984861654,-14.686205398444658],[-68.69460997805915,-14.682031658868627],[-68.68884880415943,-14.683382821504383],[-68.68526364448252,-14.682669296614815],[-68.68096062942053,-14.679882382000521],[-68.68098291730688,-14.67573985816643],[-68.68426478433548,-14.66573807295471],[-68.69543489951702,-14.659580116613625],[-68.7022929839748,-14.651669675939758],[-68.7105958435181,-14.645498265532071],[-68.71744498204333,-14.639313473444545],[-68.72539556842015,-14.63072528293515],[-68.73118351516372,-14.621428010389144],[-68.73590119556283,-14.611435178956143],[-68.73881749351591,-14.603506892518263],[-68.73918755695505,-14.60039891493565],[-68.73814413804826,-14.593826172286859],[-68.73207083261242,-14.585505472611137],[-68.7234513617639,-14.58545644079084],[-68.71804693048449,-14.587846495002374],[-68.70002772893187,-14.598111383364676],[-68.69498450406944,-14.601883814073084],[-68.68882651632175,-14.610833221829497],[-68.67802654171395,-14.615613331250538],[-68.67260875760569,-14.622493735889496],[-68.66577290478186,-14.624183733128625],[-68.65785802675296,-14.624830341549385],[-68.6507190304038,-14.615118431695306],[-68.65145026071241,-14.61166706357082],[-68.65832625713327,-14.603065454177168],[-68.66806046926496,-14.595868471258115],[-68.68321243301828,-14.58212998720472],[-68.68899590388457,-14.575940732954198],[-68.69335249099373,-14.565256716305539],[-68.69412837957934,-14.553168116207127],[-68.69596998851881,-14.544887524815126],[-68.7003041881935,-14.539385002441675],[-68.70571756350488,-14.533886933027283],[-68.71687423620698,-14.531528129278783],[-68.72260861713039,-14.533632747186427],[-68.72977439559075,-14.538506615922955],[-68.73802824302312,-14.54132025058466],[-68.74699990586501,-14.543094964809848],[-68.75563277379884,-14.5417572367303],[-68.76501465169902,-14.533864664156749],[-68.77370550369642,-14.519399371719453],[-68.77589938535621,-14.510432106709036],[-68.77631401851643,-14.49937795324545],[-68.77350482761665,-14.484163493733552],[-68.77284930991402,-14.472065950565307],[-68.77288942694686,-14.463776490659516],[-68.77188167963088,-14.447188661746763],[-68.76943808647309,-14.431283021927525],[-68.76447065953445,-14.418819877531227],[-68.76236600927852,-14.40671783709774],[-68.76026126651581,-14.397032695779947],[-68.75388480633542,-14.377305659108291],[-68.75145011289825,-14.36001772001106],[-68.74861861031165,-14.350332483586929],[-68.74180501765636,-14.346497725452672],[-68.72960491912697,-14.342627210304075],[-68.71199150788398,-14.34460704424607],[-68.7051468156519,-14.34733598467289],[-68.69001259297477,-14.357270912647333],[-68.67848139687429,-14.363081128974487],[-68.67159206366955,-14.376516394257921],[-68.66869362931875,-14.381679982945931],[-68.66579965035397,-14.385465762440827],[-68.66287446601757,-14.397884351127699],[-68.6603149847704,-14.406164961924885],[-68.65991370963047,-14.415488887526381],[-68.65988241544419,-14.422743880326758],[-68.66021691753302,-14.427234151674066],[-68.67622504181519,-14.462559137683138],[-68.67833866333103,-14.471553151562015],[-68.68044336847748,-14.483311848856312],[-68.67824505413999,-14.49159242401148],[-68.66961671462775,-14.492925624422178],[-68.66601370589555,-14.494633494509147],[-68.65812111637702,-14.492863243157714],[-68.64700456398772,-14.487276005594742],[-68.6448418916698,-14.487958183698279],[-68.63298961243984,-14.48720019602753],[-68.61679864731346,-14.490914596256626],[-68.60816135617567,-14.493282356538172],[-68.60599420729322,-14.49534245877728],[-68.59339721474001,-14.500113735288052],[-68.58618242715148,-14.50594622075049],[-68.5811391567708,-14.509375259821844],[-68.57463785516657,-14.515903441193934],[-68.56524696173963,-14.526217261099115],[-68.56234855162626,-14.5310376227086],[-68.55762630530351,-14.542412761274145],[-68.55615035239991,-14.549658798750515],[-68.55395652752144,-14.558626060050727],[-68.55142373459132,-14.562416266847373],[-68.54498480840947,-14.556160147020172],[-68.5435623450668,-14.552699889226437],[-68.53825157605141,-14.535398592620538],[-68.5368291112894,-14.531933874990854],[-68.5347155187946,-14.523630996638227],[-68.53761394142946,-14.51846738776171],[-68.5434017766286,-14.509513495950968],[-68.54667482473518,-14.501241903422624],[-68.54923436576993,-14.49261797435939],[-68.55288631551149,-14.47916485333921],[-68.55759955911871,-14.47055431556934],[-68.55943230932168,-14.462960494676743],[-68.56091271912585,-14.452954277604528],[-68.56058275870994,-14.44742496525999],[-68.55810346085997,-14.439465501504278],[-68.55310929152418,-14.431835964674214],[-68.55169574537463,-14.426650017248068],[-68.54848519863042,-14.422141904514755],[-68.54668374014554,-14.421437351072928],[-68.54165826696428,-14.422101768413398],[-68.53732855693193,-14.424500716736398],[-68.53083603372043,-14.429298751385758],[-68.52974807813153,-14.432054431350872],[-68.52646610659393,-14.441712833280244],[-68.5239111058436,-14.4517191289715],[-68.52349635595108,-14.462768776285536],[-68.5231173587712,-14.467602394992662],[-68.52019664175265,-14.47726079093783],[-68.51764600564901,-14.48415462932936],[-68.51294174151519,-14.492421805102312],[-68.51044459582295,-14.487918092939957],[-68.50831762279617,-14.482375404584676],[-68.50338582712399,-14.459897075187868],[-68.50378274712516,-14.451950996943054],[-68.50273927415205,-14.444348167072349],[-68.50244943063457,-14.42914268199651],[-68.50680599784015,-14.41949318864938],[-68.51187152331539,-14.412612754231391],[-68.51911305136257,-14.400907672185538],[-68.53101443331255,-14.391298268315948],[-68.538599368459,-14.383396712133278],[-68.54258137646858,-14.377889773600092],[-68.55016184093571,-14.369292608159475],[-68.55884371145598,-14.356557453370261],[-68.56248228244415,-14.346903428156429],[-68.56256706960062,-14.329633371545171],[-68.56301738763244,-14.309941968415245],[-68.56449333885737,-14.302352590599941],[-68.5666872508806,-14.293724223846548],[-68.56744533117079,-14.286130354109156],[-68.56890790821319,-14.279227716049085],[-68.57218976708249,-14.269917080285044],[-68.57725533411514,-14.261310999274398],[-68.58376563893965,-14.253052808388414],[-68.58880435818749,-14.251353873415015],[-68.59420878332942,-14.247929276904305],[-68.60427746298195,-14.246943806822882],[-68.61071641089481,-14.252165395002187],[-68.61827904087573,-14.25013203313023],[-68.62727301500186,-14.24672527927692],[-68.63592373350625,-14.242284040285666],[-68.64779829255349,-14.238547317816828],[-68.65680566808159,-14.233414907634996],[-68.66722662642447,-14.23312506820842],[-68.67659074554689,-14.229031615068582],[-68.68738617588788,-14.22597711064265],[-68.69603685189561,-14.21981017428455],[-68.70323825742116,-14.216737882297107],[-68.71295024217721,-14.214026679875596],[-68.72053514053873,-14.207503071438602],[-68.7263052660554,-14.203735076614812],[-68.73133952804072,-14.20168842413692],[-68.73926333444335,-14.197933803598755],[-68.747178296344,-14.1955570894181],[-68.75330506128978,-14.192823654875772],[-68.75977967801391,-14.191133662710781],[-68.77021841363741,-14.186701342537273],[-68.77345133825114,-14.186719175153755],[-68.77925256324626,-14.185635658872922],[-68.7799214517489,-14.187098182311209],[-68.77952455791059,-14.194005321985767],[-68.77481131414783,-14.203307064023313],[-68.7701248071377,-14.207083870019327],[-68.76435922299969,-14.210160717897363],[-68.75858462135024,-14.216349944822374],[-68.75064749326198,-14.22252135038899],[-68.74775795161602,-14.225615880330555],[-68.7412565637163,-14.233526383539502],[-68.73654780650186,-14.240411198936052],[-68.73292694725058,-14.246609373135358],[-68.73292694725058,-14.247643879774966],[-68.73864801754544,-14.252856562107365],[-68.74510037864412,-14.256348015174046],[-68.76019886196569,-14.255045961381938],[-68.7702630791284,-14.255103939801915],[-68.7810362655589,-14.256544233638161],[-68.78497363329981,-14.259326750170201],[-68.78998568868658,-14.264191629925861],[-68.7863469757874,-14.273845531304339],[-68.77877097797885,-14.279673590764315],[-68.77516363421692,-14.283802708365014],[-68.77081152763527,-14.291035386423673],[-68.76827432699035,-14.296546814617315],[-68.7664549568749,-14.30137602616556],[-68.76715059317598,-14.306557513770377],[-68.76892083988014,-14.311404570969714],[-68.77318370947174,-14.321098615970612],[-68.77781672207264,-14.329762687267799],[-68.78245418435483,-14.337735562455558],[-68.78601257782631,-14.345008325581759],[-68.78920973357262,-14.353658995176495],[-68.7920323715626,-14.365422096320053],[-68.79732532144064,-14.385835871151878],[-68.79869874855599,-14.399659099737251],[-68.79900194309292,-14.411065475240756],[-68.79852481876084,-14.436968401248443],[-68.79990270265408,-14.44872257816156],[-68.80522238107675,-14.464641565021163],[-68.80770169190247,-14.473292246635822],[-68.8087317127202,-14.483316283377137],[-68.80968595755012,-14.509575896874294],[-68.80888335489179,-14.527885036930666],[-68.80623457331251,-14.55584805280823]]]},"id":"0002000000000000000d","properties":{"BIOME_NUM":1.0,"ECO_BIOME_":"NO01","BIOME_NAME":"Tropical & Subtropical Moist Broadleaf Forests","NNH":1,"REALM":"Neotropic","SHAPE_AREA":7.60931625104,"OBJECTID":77.0,"COLOR_BIO":"#38A700","COLOR_NNH":"#257339","COLOR":"#085401","ECO_NAME":"Bolivian Yungas","ECO_ID":444,"SHAPE_LENG":27.5258874393,"LICENSE":"CC-BY 4.0","NNH_NAME":"Half Protected"}}]}